ogc_fid,institution,campus_name,address1,address2,suburb,state,postcode,country,street_address,provider_type,latitude,longitude
1,Batchelor Institute,Batchelor,,cnr Kirra Cres and Nurndina St,BATCHELOR,NT,845,Australia,"cnr Kirra Cres and Nurndina St, BATCHELOR, NT, 0845, Australia",TAFE,-13.047249,131.03221100000002
2,Batchelor Institute,The Desert Peoples Centre,,Desert People Centre,ALICE SPRINGS,NT,870,Australia,"Desert People Centre, ALICE SPRINGS, NT, 0870, Australia",TAFE,-23.759498,133.878311
3,Bendigo TAFE,Castlemaine,,65 Templeton Street,CASTLEMAINE,VIC,3450,Australia,"65 Templeton Street, CASTLEMAINE, VIC, 3450, Australia",TAFE,-37.063106,144.218984
4,Bendigo TAFE,Bendigo,,23 Mundy Street,BENDIGO,VIC,3550,Australia,"23 Mundy Street, BENDIGO, VIC, 3550, Australia",TAFE,-36.7573005,144.2832416
5,Bendigo TAFE,Charleston Road,,Charleston Road,BENDIGO,VIC,3550,Australia,"Charleston Road, BENDIGO, VIC, 3550, Australia",TAFE,-36.7524961,144.2949021
6,Bendigo TAFE,Echuca,,Cnr Hare & Darling Streets,ECHUCA,VIC,3564,Australia,"Cnr Hare & Darling Streets, ECHUCA, VIC, 3564, Australia",TAFE,-36.130217,144.750825
7,Bendigo TAFE and Kangan Institute,Bendigo TAFE - Bendigo Technical Education College (BTEC),,21 St. Andrews Avenue,BENDIGO,VIC,3550,Australia,"21 St. Andrews Avenue, BENDIGO, VIC, 3550, Australia",TAFE,-36.7602,144.284
8,Box Hill Institute,City,,253 Flinders Lane,MELBOURNE,VIC,3000,Australia,"253 Flinders Lane, MELBOURNE, VIC, 3000, Australia",TAFE,-37.81694088,144.96584140000002
9,Box Hill Institute,Box Hill,,465 Elgar Road,BOX HILL,VIC,3128,Australia,"465 Elgar Road, BOX HILL, VIC, 3128, Australia",TAFE,-37.81552,145.114738
10,Box Hill Institute,Whitehorse,,1000 Whitehorse Road,BOX HILL,VIC,3128,Australia,"1000 Whitehorse Road, BOX HILL, VIC, 3128, Australia",TAFE,-37.8187,145.126
11,Box Hill Institute,Nelson,,853 Whitehorse Road,BOX HILL,VIC,3128,Australia,"853 Whitehorse Road, BOX HILL, VIC, 3128, Australia",TAFE,-37.8166229,145.1192576
12,Box Hill Institute,Lilydale,,34 John Street,LILYDALE,VIC,3140,Australia,"34 John Street, LILYDALE, VIC, 3140, Australia",TAFE,-37.758694,145.34718600000002
13,Canberra Institute of Technology,CIT Woden,,160 Ainsworth Street,PHILLIP,ACT,2606,Australia,"160 Ainsworth Street, PHILLIP, ACT, 2606, Australia",TAFE,-35.348329,149.096518
14,Canberra Institute of Technology,CIT Fyshwick,,81 Mildura Street,FYSHWICK,ACT,2609,Australia,"81 Mildura Street, FYSHWICK, ACT, 2609, Australia",TAFE,-35.326935999999996,149.158466
15,Canberra Institute of Technology,CIT Reid,,37 Constitution Avenue,REID,ACT,2612,Australia,"37 Constitution Avenue, REID, ACT, 2612, Australia",TAFE,-35.286986999999996,149.1379209
16,Canberra Institute of Technology,CIT Bruce,,35 Vowels Crescent,BRUCE ,ACT,2617,Australia,"35 Vowels Crescent, BRUCE , ACT, 2617, Australia",TAFE,-35.249246,149.095689
17,Canberra Institute of Technology,CIT Tuggeranong,,205 Anketell Street,TUGGERANONG,ACT,2900,Australia,"205 Anketell Street, TUGGERANONG, ACT, 2900, Australia",TAFE,-35.4162774,149.068516
18,Canberra Institute of Technology,CIT Gungahlin,,25 Gozzard Street,GUNGAHLIN,ACT,2912,Australia,"25 Gozzard Street, GUNGAHLIN, ACT, 2912, Australia",TAFE,-35.186043,149.13172600000001
19,Central Regional TAFE,Northam,,Hutt Street,NORTHAM,WA,6401,Australia,"Hutt Street, NORTHAM, WA, 6401, Australia",TAFE,-31.643559999999997,116.664368
20,Central Regional TAFE,Merredin,,42 Throssell Road,MERREDIN,WA,6415,Australia,"42 Throssell Road, MERREDIN, WA, 6415, Australia",TAFE,-31.48668833,118.28426599999999
21,Central Regional TAFE,Kalgoorlie,,34 Cheetham Street Kalgoorlie,KALGOORLIE,WA,6430,Australia,"34 Cheetham Street Kalgoorlie, KALGOORLIE, WA, 6430, Australia",TAFE,-30.749625,121.4757872
22,Central Regional TAFE,Moora,,242 Berkshire Valley Road,MOORA,WA,6510,Australia,"242 Berkshire Valley Road, MOORA, WA, 6510, Australia",TAFE,-30.6382863,116.0152601
23,Central Regional TAFE,Technology Park,,Arthur Rd,GERALDTON,WA,6530,Australia,"Arthur Rd, GERALDTON, WA, 6530, Australia",TAFE,-28.801071000000004,114.697993
24,Central Regional TAFE,Geraldton,,173-175 Fitzgerald Street,GERALDTON,WA,6530,Australia,"173-175 Fitzgerald Street, GERALDTON, WA, 6530, Australia",TAFE,-28.786634999999997,114.60798
25,Central Regional TAFE,Central Regional TAFE,,175 Fitzgerald Street,GERALDTON,WA,6530,Australia,"175 Fitzgerald Street, GERALDTON, WA, 6530, Australia",TAFE,-28.786568,114.60842199999999
26,Central Regional TAFE,BCMI - Geraldton,,133 Willcock Drive Separation Point,GERALDTON,WA,6530,Australia,"133 Willcock Drive Separation Point, GERALDTON, WA, 6530, Australia",TAFE,-28.789905800000003,114.59794879999998
27,Central Regional TAFE,Wiluna Technical Centre,,Mudjon Street,WILUNA,WA,6646,Australia,"Mudjon Street, WILUNA, WA, 6646, Australia",TAFE,-26.598670000000002,120.22707
28,Central Regional TAFE,Carnarvon,,14 Camel Lane,CARNARVON,WA,6701,Australia,"14 Camel Lane, CARNARVON, WA, 6701, Australia",TAFE,-24.882628,113.656107
29,Central Regional TAFE,Exmouth,,5 Pellew Street,EXMOUTH,WA,6707,Australia,"5 Pellew Street, EXMOUTH, WA, 6707, Australia",TAFE,-21.9389358,114.12943119999998
30,Charles Darwin University,CDU Waterfront Darwin,,22 Kitchener Drive,DARWIN,NT,800,Australia,"22 Kitchener Drive, DARWIN, NT, 0800, Australia",TAFE,-12.467944300000001,130.84538700000002
31,Charles Darwin University,Casuarina,,Ellengowan Drive,CASUARINA,NT,810,Australia,"Ellengowan Drive, CASUARINA, NT, 0810, Australia",TAFE,-12.372836,130.870688
32,Charles Darwin University,Palmerston,,University Avenue,PALMERSTON,NT,830,Australia,"University Avenue, PALMERSTON, NT, 0830, Australia",TAFE,-12.475876,130.97863600000002
33,Charles Darwin University,Katherine Town Centre,,19 Second Street,KATHERINE,NT,851,Australia,"19 Second Street, KATHERINE, NT, 0851, Australia",TAFE,-14.461000899999998,132.2637258
34,Charles Darwin University,Tennant Creek Centre,,65 Staunton Street,TENNANT CREEK,NT,860,Australia,"65 Staunton Street, TENNANT CREEK, NT, 0860, Australia",TAFE,-19.65247,134.1955986
35,Charles Darwin University,Alice Springs,,17 Grevillea Dr,Sadadeen,NT,870,Australia,"17 Grevillea Dr, Sadadeen, NT, 0870, Australia",TAFE,-23.6983153,133.89733429999998
36,Charles Darwin University,Yulara Centre,,13 Winmati Street,YULARA,NT,872,Australia,"13 Winmati Street, YULARA, NT, 0872, Australia",TAFE,-25.234994,130.982947
37,Charles Darwin University,Nhulunbuy Campus,,Chesterfield Circuit,NHULUNBUY,NT,881,Australia,"Chesterfield Circuit, NHULUNBUY, NT, 0881, Australia",TAFE,-12.183099,136.784641
38,Chisholm Institute,Melbourne City,,35 Vowels Crescent,BRUCE,ACT,2617,Australia,"35 Vowels Crescent, BRUCE, ACT, 2617, Australia",TAFE,-35.248111200000004,149.0946633
39,Chisholm Institute,Melbourne City,,399 Lonsdale Street,MELBOURNE,VIC,3000,Australia,"399 Lonsdale Street, MELBOURNE, VIC, 3000, Australia",TAFE,-37.8130461,144.96068209999999
40,Chisholm Institute,Flinders Lane,,234 Flinders Lane,MELBOURNE,VIC,3000,Australia,"234 Flinders Lane, MELBOURNE, VIC, 3000, Australia",TAFE,-37.8174531,144.96378130000002
41,Chisholm Institute,Melbourne City,,399 Lonsdale Street,MELBOURNE,VIC,3000,Australia,"399 Lonsdale Street, MELBOURNE, VIC, 3000, Australia",TAFE,-37.8130461,144.96068209999999
42,Chisholm Institute,Flinders Lane,,234 Flinders Lane,MELBOURNE,VIC,3000,Australia,"234 Flinders Lane, MELBOURNE, VIC, 3000, Australia",TAFE,-37.81656454,144.9662619
43,Chisholm Institute,Flinders Lane,,Jarlo Drive,LILYDALE,VIC,3140,Australia,"Jarlo Drive, LILYDALE, VIC, 3140, Australia",TAFE,-37.765532,145.346824
44,Chisholm Institute,Springvale,,Corner Boulton Street and Springvale Road,SPRINGVALE,VIC,3171,Australia,"Corner Boulton Street and Springvale Road, SPRINGVALE, VIC, 3171, Australia",TAFE,-37.9452297,145.153445
45,Chisholm Institute,Chisholm@311,,311 Lonsdale Street,DANDENONG,VIC,3175,Australia,"311 Lonsdale Street, DANDENONG, VIC, 3175, Australia",TAFE,-37.986327100000004,145.2135824
46,Chisholm Institute,Dandenong,,121 Stud Road,DANDENONG,VIC,3175,Australia,"121 Stud Road, DANDENONG, VIC, 3175, Australia",TAFE,-37.975611,145.22193280000002
47,Chisholm Institute,Frankston,,Fletcher Road,FRANKSTON,VIC,3199,Australia,"Fletcher Road, FRANKSTON, VIC, 3199, Australia",TAFE,-38.1436117,145.1270729
48,Chisholm Institute,Berwick,,Cnr Clyde Road and Kangan Drive,BERWICK,VIC,3806,Australia,"Cnr Clyde Road and Kangan Drive, BERWICK, VIC, 3806, Australia",TAFE,-38.042536,145.3435417
49,Chisholm Institute,Mornington Peninsula,,Boneo Road,ROSEBUD,VIC,3939,Australia,"Boneo Road, ROSEBUD, VIC, 3939, Australia",TAFE,-38.3838959,144.8881818
50,Chisholm Institute,Cranbourne,,New Holland Drive,CRANBOURNE,VIC,3977,Australia,"New Holland Drive, CRANBOURNE, VIC, 3977, Australia",TAFE,-38.110234999999996,145.294673
51,Chisholm Institute,Bass Coast,,Cnr Bass Highway & South Dudley Road,WONTHAGGI,VIC,3995,Australia,"Cnr Bass Highway & South Dudley Road, WONTHAGGI, VIC, 3995, Australia",TAFE,-38.589665000000004,145.581253
52,Federation Training,Chadstone,,41 Drummond Street,CHADSTONE,VIC,3148,Australia,"41 Drummond Street, CHADSTONE, VIC, 3148, Australia",TAFE,-37.885999999999996,145.092
53,Federation Training,Warragul,,116-118 Queen Street,WARRAGUL,VIC,3820,Australia,"116-118 Queen Street, WARRAGUL, VIC, 3820, Australia",TAFE,-38.1643013,145.93268769999997
54,Federation Training,Yallourn,,Monash Road,NEWBOROUGH,VIC,3825,Australia,"Monash Road, NEWBOROUGH, VIC, 3825, Australia",TAFE,-38.175824,146.307536
55,Federation Training,Morwell,,Cnr Princes Drive and Monash Way,MORWELL,VIC,3840,Australia,"Cnr Princes Drive and Monash Way, MORWELL, VIC, 3840, Australia",TAFE,-38.239774,146.421706
56,Federation Training,Traralgon,,49-63 Princes Street,TRARALGON,VIC,3844,Australia,"49-63 Princes Street, TRARALGON, VIC, 3844, Australia",TAFE,-38.19891,146.53699
57,Federation Training,Sale,,Williams Drive,FULHAM,VIC,3851,Australia,"Williams Drive, FULHAM, VIC, 3851, Australia",TAFE,-38.097555,146.964946
58,Federation Training,Bairnsdale,,48 Main St,BAIRNSDALE,VIC,3875,Australia,"48 Main St, BAIRNSDALE, VIC, 3875, Australia",TAFE,-37.824934000000006,147.63531
59,Federation Training,Forestec,,27 Scriveners Road,KALIMNA WEST,VIC,3909,Australia,"27 Scriveners Road, KALIMNA WEST, VIC, 3909, Australia",TAFE,-37.8401785,147.9275304
60,Federation Training,Lakes Entrance (SEAMEC),,Bullock Island Road,LAKES ENTRANCE,VIC,3909,Australia,"Bullock Island Road, LAKES ENTRANCE, VIC, 3909, Australia",TAFE,-37.8837994,147.97133019999998
61,Federation Training,Leongatha,,Nerrena Road,LEONGATHA,VIC,3953,Australia,"Nerrena Road, LEONGATHA, VIC, 3953, Australia",TAFE,-38.478491999999996,145.96448
62,Gordon Institute of TAFE,Hoppers Crossing,,195 Old Geelong Road,HOPPERS CROSSING,VIC,3029,Australia,"195 Old Geelong Road, HOPPERS CROSSING, VIC, 3029, Australia",TAFE,-37.877338,144.711357
63,Gordon Institute of TAFE,Werribee,,24 Watton Street,WERRIBEE,VIC,3030,Australia,"24 Watton Street, WERRIBEE, VIC, 3030, Australia",TAFE,-37.901394599999996,144.6608731
64,Gordon Institute of TAFE,Werribee Learning Centre,,9 Bridge Street,WERRIBEE,VIC,3030,Australia,"9 Bridge Street, WERRIBEE, VIC, 3030, Australia",TAFE,-37.902868,144.66031759999998
65,Gordon Institute of TAFE,East Geelong,,Boundary Road,EAST GEELONG,VIC,3219,Australia,"Boundary Road, EAST GEELONG, VIC, 3219, Australia",TAFE,-38.174141,144.38279599999998
66,Gordon Institute of TAFE,Geelong City,,2 Fenwick Street,GEELONG,VIC,3220,Australia,"2 Fenwick Street, GEELONG, VIC, 3220, Australia",TAFE,-38.146091,144.355255
67,Gordon Institute of TAFE,Colac,,173 Queen Street,COLAC,VIC,3250,Australia,"173 Queen Street, COLAC, VIC, 3250, Australia",TAFE,-38.3523381,143.5884655
68,Goulburn Ovens Institute of TAFE,Werribee,,3 Research Close,WERRIBEE,VIC,3030,Australia,"3 Research Close, WERRIBEE, VIC, 3030, Australia",TAFE,-37.892483,144.686638
69,Goulburn Ovens Institute of TAFE,Shepparton - Archer Street,,290 - 300 Archer Street,SHEPPARTON,VIC,3630,Australia,"290 - 300 Archer Street, SHEPPARTON, VIC, 3630, Australia",TAFE,-36.4019354,145.40876980000002
70,Goulburn Ovens Institute of TAFE,Shepparton - Fryers Street,,152-200 Fryers Street,SHEPPARTON,VIC,3630,Australia,"152-200 Fryers Street, SHEPPARTON, VIC, 3630, Australia",TAFE,-36.3799335,145.4049856
71,Goulburn Ovens Institute of TAFE,Goulburn Ovens Institute of TAFE,,Fryers St,SHEPPARTON,VIC,3630,Australia,"Fryers St, SHEPPARTON, VIC, 3630, Australia",TAFE,-36.380033000000005,145.40458999999998
72,Goulburn Ovens Institute of TAFE,William Orr,,Wanganui Road,SHEPPARTON,VIC,3630,Australia,"Wanganui Road, SHEPPARTON, VIC, 3630, Australia",TAFE,-36.34711,145.370898
73,Goulburn Ovens Institute of TAFE,Seymour,,Wallis Street,SEYMOUR,VIC,3660,Australia,"Wallis Street, SEYMOUR, VIC, 3660, Australia",TAFE,-37.022339,145.134527
74,Goulburn Ovens Institute of TAFE,Benalla,,57 Samaria Road,BENALLA,VIC,3672,Australia,"57 Samaria Road, BENALLA, VIC, 3672, Australia",TAFE,-36.554443,145.99680800000002
75,Goulburn Ovens Institute of TAFE,Wangaratta,,27 Docker Street,WANGARATTA,VIC,3677,Australia,"27 Docker Street, WANGARATTA, VIC, 3677, Australia",TAFE,-36.354686,146.31938
76,Goulburn Ovens Institute of TAFE,Rural Industries,,Tone Road,WANGARATTA,VIC,3677,Australia,"Tone Road, WANGARATTA, VIC, 3677, Australia",TAFE,-36.377012,146.28673799999999
77,Holmesglen Institute,City,,332 St Kilda Road,SOUTHBANK,VIC,3006,Australia,"332 St Kilda Road, SOUTHBANK, VIC, 3006, Australia",TAFE,-37.829759,144.97092
78,Holmesglen Institute,North Melbourne,,200 Arden Street,NORTH MELBOURNE,VIC,3051,Australia,"200 Arden Street, NORTH MELBOURNE, VIC, 3051, Australia",TAFE,-37.8001492,144.944751
79,Holmesglen Institute,Holmesglen Institute,,1 Batesford Rd,CHADSTONE,VIC,3148,Australia,"1 Batesford Rd, CHADSTONE, VIC, 3148, Australia",TAFE,-37.876341,145.08629399999998
80,Holmesglen Institute,Head office,,Batesford Road,CHADSTONE,VIC,3148,Australia,"Batesford Road, CHADSTONE, VIC, 3148, Australia",TAFE,-37.87644,145.085409
81,Holmesglen Institute,Chadstone,,Cnr Batesford & Warrigal Roads,CHADSTONE,VIC,3148,Australia,"Cnr Batesford & Warrigal Roads, CHADSTONE, VIC, 3148, Australia",TAFE,-37.8761211,145.0864716
82,Holmesglen Institute,Waverley,,595 Waverley Road,GLEN WAVERLEY,VIC,3150,Australia,"595 Waverley Road, GLEN WAVERLEY, VIC, 3150, Australia",TAFE,-37.8853149,145.1544024
83,Holmesglen Institute,Bulli Street,,36 Bulli Street,MOORABBIN,VIC,3189,Australia,"36 Bulli Street, MOORABBIN, VIC, 3189, Australia",TAFE,-37.943407,145.054753
84,Holmesglen Institute,Moorabbin,,488 South Road,MOORABBIN,VIC,3189,Australia,"488 South Road, MOORABBIN, VIC, 3189, Australia",TAFE,-37.937393900000004,145.05063619999999
85,Holmesglen Institute,Eildon,,92 Moore Road,EILDON,VIC,3713,Australia,"92 Moore Road, EILDON, VIC, 3713, Australia",TAFE,-37.2686449,145.8804535
86,Hunter Institute,Gosford,,Cnr of Henry Parry Drive & Margin Street,Gosford,NSW,2250,Australia,"Cnr of Henry Parry Drive & Margin Street, Gosford, NSW, 2250, Australia",TAFE,-33.4283525,151.3438298
87,Hunter Institute,Ourimbah,,Brush Road,Ourimbah,NSW,2258,Australia,"Brush Road, Ourimbah, NSW, 2258, Australia",TAFE,-33.356577,151.376679
88,Hunter Institute,Wyong,,Porter Street,Wyong,NSW,2259,Australia,"Porter Street, Wyong, NSW, 2259, Australia",TAFE,-33.2782513,151.4193706
89,Hunter Institute,Belmont,,647 Pacific Highway,Belmont,NSW,2280,Australia,"647 Pacific Highway, Belmont, NSW, 2280, Australia",TAFE,-33.039269399999995,151.6596245
90,Hunter Institute,Glendale,,Frederick Street,Glendale,NSW,2285,Australia,"Frederick Street, Glendale, NSW, 2285, Australia",TAFE,-32.9249856,151.6392601
91,Hunter Institute,Newcastle,,266 Maitland Road,Tighes Hill,NSW,2297,Australia,"266 Maitland Road, Tighes Hill, NSW, 2297, Australia",TAFE,-32.908325899999994,151.7449189
92,Hunter Institute,Hamilton,,91 Parry Street Newcastle,West,NSW,2302,Australia,"91 Parry Street Newcastle, West, NSW, 2302, Australia",TAFE,-32.926343,151.7564311
93,Hunter Institute,Hunter Street,,590-608 Hunter Street Newcastle,West,NSW,2302,Australia,"590-608 Hunter Street Newcastle, West, NSW, 2302, Australia",TAFE,-32.9269694,151.7662459
94,Hunter Institute,Tomaree,,Salamander Way,Salamander Bay,NSW,2317,Australia,"Salamander Way, Salamander Bay, NSW, 2317, Australia",TAFE,-32.735623,152.11236200000002
127,Melbourne Polytechnic,Fairfield,,Yarra Bend Road,FAIRFIELD,VIC,3078,Australia,"Yarra Bend Road, FAIRFIELD, VIC, 3078, Australia",TAFE,-37.7875839,145.01142219999997
95,Hunter Institute,Maitland,,Cnr of New England Highway & Ferraby Drive,Metford,NSW,2323,Australia,"Cnr of New England Highway & Ferraby Drive, Metford, NSW, 2323, Australia",TAFE,-32.7750981,151.6144412
96,Hunter Institute,Cessnock,,Darwin Street,Cessnock,NSW,2325,Australia,"Darwin Street, Cessnock, NSW, 2325, Australia",TAFE,-32.837342,151.3523554
97,Hunter Institute,Kurri Kurri,,McLeod Road Kurri,Kurri,NSW,2327,Australia,"McLeod Road Kurri, Kurri, NSW, 2327, Australia",TAFE,-32.797077,151.49568200000002
98,Hunter Institute,Singleton,,York Street,Singleton,NSW,2330,Australia,"York Street, Singleton, NSW, 2330, Australia",TAFE,-32.5686401,151.17909419999998
99,Hunter Institute,Muswellbrook,,59 Maitland Street,Muswellbrook,NSW,2333,Australia,"59 Maitland Street, Muswellbrook, NSW, 2333, Australia",TAFE,-32.2741983,150.89244480000002
100,Hunter Institute,Scone,,2 Flemington Drive,Scone,NSW,2337,Australia,"2 Flemington Drive, Scone, NSW, 2337, Australia",TAFE,-32.031840700000004,150.8301512
101,Illawarra Institute,Wollongong West,,36 Gladstone Avenue,Wollongong,NSW,2500,Australia,"36 Gladstone Avenue, Wollongong, NSW, 2500, Australia",TAFE,-34.429398,150.8858369
102,Illawarra Institute,TAFE NSW - Illawarra Institute,,3 Rowland Avenue,WOLLONGONG WEST,NSW,2500,Australia,"3 Rowland Avenue, WOLLONGONG WEST, NSW, 2500, Australia",TAFE,-34.428849299999996,150.885579
103,Illawarra Institute,Wollongong,,Foleys Lane North,Wollongong,NSW,2500,Australia,"Foleys Lane North, Wollongong, NSW, 2500, Australia",TAFE,-34.4067156,150.88553159999998
104,Illawarra Institute,Shellharbour,,11 College Avenue,Oak Flats,NSW,2529,Australia,"11 College Avenue, Oak Flats, NSW, 2529, Australia",TAFE,-34.5605409,150.8384036
105,Illawarra Institute,Dapto,,145 Fowlers Road,Dapto,NSW,2530,Australia,"145 Fowlers Road, Dapto, NSW, 2530, Australia",TAFE,-34.4993301,150.7907976
106,Illawarra Institute,Yallah,,138 Marshall Mount Road,Yallah,NSW,2530,Australia,"138 Marshall Mount Road, Yallah, NSW, 2530, Australia",TAFE,-34.521086,150.77031530000002
107,Illawarra Institute,Moruya,,2857 Princes Highway,Moruya,NSW,2537,Australia,"2857 Princes Highway, Moruya, NSW, 2537, Australia",TAFE,-35.921620399999995,150.086487
108,Illawarra Institute,Ulladulla,,156 Green Street,Ulladulla,NSW,2539,Australia,"156 Green Street, Ulladulla, NSW, 2539, Australia",TAFE,-35.3555957,150.4587908
109,Illawarra Institute,Nowra,,60 Beinda Street,Bomaderry,NSW,2541,Australia,"60 Beinda Street, Bomaderry, NSW, 2541, Australia",TAFE,-34.85699,150.59943169999997
110,Illawarra Institute,Bega,,3-33 Barrack Street,Bega,NSW,2550,Australia,"3-33 Barrack Street, Bega, NSW, 2550, Australia",TAFE,-36.6820006,149.842857
111,Illawarra Institute,Moss Vale,,Kirkham Street,Moss Vale,NSW,2577,Australia,"Kirkham Street, Moss Vale, NSW, 2577, Australia",TAFE,-34.5539133,150.3755397
112,Illawarra Institute,Goulburn,,Cnr Verner & View Streets,Goulburn,NSW,2580,Australia,"Cnr Verner & View Streets, Goulburn, NSW, 2580, Australia",TAFE,-34.7491111,149.70511430000002
113,Illawarra Institute,Yass,,51 Church Street,Yass,NSW,2582,Australia,"51 Church Street, Yass, NSW, 2582, Australia",TAFE,-34.843996000000004,148.9152769
114,Illawarra Institute,Queanbeyan,,Cnr Buttle & MacQuoid Streets,Queanbeyan,NSW,2620,Australia,"Cnr Buttle & MacQuoid Streets, Queanbeyan, NSW, 2620, Australia",TAFE,-35.3497051,149.2448905
115,Illawarra Institute,Cooma,,66 Commissioner Street,Cooma,NSW,2630,Australia,"66 Commissioner Street, Cooma, NSW, 2630, Australia",TAFE,-36.23502979999999,149.1293364
116,Kangan Institute,Docklands,,1 Batman's Hill Drive,DOCKLANDS,VIC,3008,Australia,"1 Batman's Hill Drive, DOCKLANDS, VIC, 3008, Australia",TAFE,-37.8220736,144.9490642
117,Kangan Institute,Moonee Ponds,,21-31 Hall Street,MOONEE PONDS,VIC,3039,Australia,"21-31 Hall Street, MOONEE PONDS, VIC, 3039, Australia",TAFE,-37.765756,144.92281719999997
118,Kangan Institute,Essendon,,38 Buckley Street,ESSENDON,VIC,3040,Australia,"38 Buckley Street, ESSENDON, VIC, 3040, Australia",TAFE,-37.757134,144.923352
119,Kangan Institute,Broadmeadows,,Pearcedale Parade,BROADMEADOWS,VIC,3047,Australia,"Pearcedale Parade, BROADMEADOWS, VIC, 3047, Australia",TAFE,-37.677587,144.916577
120,Kangan Institute,Richmond,,85 Cremorne Street,RICHMOND,VIC,3121,Australia,"85 Cremorne Street, RICHMOND, VIC, 3121, Australia",TAFE,-37.827766,144.990849
121,Melbourne City College Australia,Melbourne,,120 Spencer Street,MELBOURNE,VIC,3000,Australia,"120 Spencer Street, MELBOURNE, VIC, 3000, Australia",TAFE,-37.818212200000005,144.9543022
122,Melbourne Polytechnic,Broadmeadows AMEP Centre,,Cnr Belfast & Blair Streets,BROADMEADOWS,VIC,3047,Australia,"Cnr Belfast & Blair Streets, BROADMEADOWS, VIC, 3047, Australia",TAFE,-37.742489899999995,144.99789840000003
123,Melbourne Polytechnic,Collingwood,,20 Otter Street,COLLINGWOOD,VIC,3066,Australia,"20 Otter Street, COLLINGWOOD, VIC, 3066, Australia",TAFE,-37.8004456,144.9855129
124,Melbourne Polytechnic,Preston,,77 St Georges Road,PRESTON,VIC,3072,Australia,"77 St Georges Road, PRESTON, VIC, 3072, Australia",TAFE,-37.742489899999995,144.99789840000003
125,Melbourne Polytechnic,Northland,,2-50 Murray Road,PRESTON,VIC,3072,Australia,"2-50 Murray Road, PRESTON, VIC, 3072, Australia",TAFE,-37.738503,145.030855
126,Melbourne Polytechnic,Epping,,Cnr Cooper Street & Dalton Road,EPPING,VIC,3076,Australia,"Cnr Cooper Street & Dalton Road, EPPING, VIC, 3076, Australia",TAFE,-37.6531173,145.03050290000002
128,Melbourne Polytechnic,Heidelberg,,Cnr Bell Street & Waterdale Road,HEIDELBERG WEST,VIC,3081,Australia,"Cnr Bell Street & Waterdale Road, HEIDELBERG WEST, VIC, 3081, Australia",TAFE,-37.750528,145.045331
129,Melbourne Polytechnic,Plenty Valley,,415 McDonalds Road,MILL PARK,VIC,3082,Australia,"415 McDonalds Road, MILL PARK, VIC, 3082, Australia",TAFE,-37.650726,145.069851
130,Melbourne Polytechnic,Greensborough,,Civic Drive,GREENSBOROUGH,VIC,3088,Australia,"Civic Drive, GREENSBOROUGH, VIC, 3088, Australia",TAFE,-37.687846,145.112211
131,Melbourne Polytechnic,Doncaster,,619 Doncaster Road,DONCASTER,VIC,3108,Australia,"619 Doncaster Road, DONCASTER, VIC, 3108, Australia",TAFE,-37.78588,145.125477
132,Melbourne Polytechnic,Prahran,,144 High Street,PRAHRAN,VIC,3181,Australia,"144 High Street, PRAHRAN, VIC, 3181, Australia",TAFE,-37.8525674,144.9919826
133,Melbourne Polytechnic,Ararat,,Grano Street,ARARAT,VIC,3377,Australia,"Grano Street, ARARAT, VIC, 3377, Australia",TAFE,-37.279624,142.95863300000002
134,Melbourne Polytechnic,Growling Frog Vineyard,,1910 Donnybrook Road,YAN YEAN,VIC,3755,Australia,"1910 Donnybrook Road, YAN YEAN, VIC, 3755, Australia",TAFE,-37.555947499999995,145.0910711
135,Melbourne Polytechnic,Northern Lodge,,Glen Robin Court,EDEN PARK,VIC,3757,Australia,"Glen Robin Court, EDEN PARK, VIC, 3757, Australia",TAFE,-37.505283,145.043221
136,New England Institute,Tamworth,,13 Janison Street,Tamworth,NSW,2340,Australia,"13 Janison Street, Tamworth, NSW, 2340, Australia",TAFE,-31.077798100000003,150.9359556
137,New England Institute,Quirindi,,Henry & East Streets,Quirindi,NSW,2343,Australia,"Henry & East Streets, Quirindi, NSW, 2343, Australia",TAFE,-31.5107094,150.690978
138,New England Institute,Armidale,,Beardy Street,Armidale,NSW,2350,Australia,"Beardy Street, Armidale, NSW, 2350, Australia",TAFE,-30.511947999999997,151.65963190000002
139,New England Institute,Coonabarabran,,16 Robertson Street,Coonabarabran,NSW,2357,Australia,"16 Robertson Street, Coonabarabran, NSW, 2357, Australia",TAFE,-31.275045000000002,149.27444340000002
140,New England Institute,Inverell,,Evans Street,Inverell,NSW,2360,Australia,"Evans Street, Inverell, NSW, 2360, Australia",TAFE,-29.774811800000002,151.1136267
141,New England Institute,Glen Innes,,65 Grey Street Glen,Innes,NSW,2370,Australia,"65 Grey Street Glen, Innes, NSW, 2370, Australia",TAFE,-29.746552,151.734668
142,New England Institute,Tenterfield,,High & East Streets,Tenterfield,NSW,2372,Australia,"High & East Streets, Tenterfield, NSW, 2372, Australia",TAFE,-29.054377000000002,152.027407
143,New England Institute,Gunnedah,,Hunter Street,Gunnedah,NSW,2380,Australia,"Hunter Street, Gunnedah, NSW, 2380, Australia",TAFE,-30.984299,150.246783
144,New England Institute,Narrabri,,85 Barwan Street,Narrabri,NSW,2390,Australia,"85 Barwan Street, Narrabri, NSW, 2390, Australia",TAFE,-30.325303,149.784232
145,New England Institute,Moree,,22-38 Frome Street,Moree,NSW,2400,Australia,"22-38 Frome Street, Moree, NSW, 2400, Australia",TAFE,-29.462263800000002,149.843587
146,North Coast Institute,Great Lakes,,The Northern Parkway,Tuncurry,NSW,2428,Australia,"The Northern Parkway, Tuncurry, NSW, 2428, Australia",TAFE,-32.161281,152.494418
147,North Coast Institute,Taree,,Montgomery Crescent,Taree,NSW,2430,Australia,"Montgomery Crescent, Taree, NSW, 2430, Australia",TAFE,-31.9174086,152.446873
148,North Coast Institute,Kempsey,,58 Sea Street West,Kempsey,NSW,2440,Australia,"58 Sea Street West, Kempsey, NSW, 2440, Australia",TAFE,-31.070628000000003,152.8264249
149,North Coast Institute,Port Macquarie,,70 Widderson Street Port,Macquarie,NSW,2444,Australia,"70 Widderson Street Port, Macquarie, NSW, 2444, Australia",TAFE,-31.440087,152.890194
150,North Coast Institute,TAFE NSW - North Coast Institute,,70 Widderson Street,PORT MACQUARIE,NSW,2444,Australia,"70 Widderson Street, PORT MACQUARIE, NSW, 2444, Australia",TAFE,-31.440284000000002,152.890965
151,North Coast Institute,Wauchope,,Young Street,Wauchope,NSW,2446,Australia,"Young Street, Wauchope, NSW, 2446, Australia",TAFE,-31.4558645,152.7310795
152,North Coast Institute,Macksville,,5-9 West Street,Macksville,NSW,2447,Australia,"5-9 West Street, Macksville, NSW, 2447, Australia",TAFE,-30.708317699999995,152.9158351
153,North Coast Institute,Coffs Harbour,,Glenreagh Street,Coffs Harbour,NSW,2450,Australia,"Glenreagh Street, Coffs Harbour, NSW, 2450, Australia",TAFE,-30.301028000000002,153.1236
154,North Coast Institute,Coffs Harbour Education Campus (CHEC),,363 Hogbin Drive,Coffs Harbour,NSW,2450,Australia,"363 Hogbin Drive, Coffs Harbour, NSW, 2450, Australia",TAFE,-30.326346100000002,153.1017085
155,North Coast Institute,Grafton,,7 Clarence Street,Grafton,NSW,2460,Australia,"7 Clarence Street, Grafton, NSW, 2460, Australia",TAFE,-29.693568,152.939102
156,North Coast Institute,Trenayr,,Trenayr Road,JUNCTION HILL,NSW,2460,Australia,"Trenayr Road, JUNCTION HILL, NSW, 2460, Australia",TAFE,-29.620096000000004,152.947138
157,North Coast Institute,Maclean,,Wombah Street,Maclean,NSW,2463,Australia,"Wombah Street, Maclean, NSW, 2463, Australia",TAFE,-29.4663354,153.2029586
158,North Coast Institute,Casino,,144 Barker Street,Casino,NSW,2470,Australia,"144 Barker Street, Casino, NSW, 2470, Australia",TAFE,-28.8648876,153.0496229
159,North Coast Institute,Wollongbar,,Sneaths Road,Wollongbar,NSW,2477,Australia,"Sneaths Road, Wollongbar, NSW, 2477, Australia",TAFE,-28.815556400000002,153.4117264
160,North Coast Institute,Ballina,,154-164 Burnet Street,Ballina,NSW,2478,Australia,"154-164 Burnet Street, Ballina, NSW, 2478, Australia",TAFE,-28.8633971,153.55338659999998
161,North Coast Institute,Lismore,,64 Conway Street,Lismore,NSW,2480,Australia,"64 Conway Street, Lismore, NSW, 2480, Australia",TAFE,-28.8118799,153.2774459
162,North Coast Institute,Murwillumbah,,Murwillumbah Street,Murwillumbah,NSW,2484,Australia,"Murwillumbah Street, Murwillumbah, NSW, 2484, Australia",TAFE,-28.326414,153.3943601
163,North Coast Institute,Kingscliff,,Cudgen Road,Kingscliff,NSW,2487,Australia,"Cudgen Road, Kingscliff, NSW, 2487, Australia",TAFE,-28.265675899999994,153.5688579
164,North Metropolitan TAFE,Perth,,81 Mildura Street,FYSHWICK,ACT,2609,Australia,"81 Mildura Street, FYSHWICK, ACT, 2609, Australia",TAFE,-35.3268998,149.1579053
165,North Metropolitan TAFE,Perth - Northbridge,,25 Aberdeen Street,NORTHBRIDGE,WA,6003,Australia,"25 Aberdeen Street, NORTHBRIDGE, WA, 6003, Australia",TAFE,-31.948504800000002,115.8626199
166,North Metropolitan TAFE,East Perth,,140 Royal Street EAST,PERTH,WA,6004,Australia,"140 Royal Street EAST, PERTH, WA, 6004, Australia",TAFE,-31.951096999999997,115.87215900000001
167,North Metropolitan TAFE,Leederville,,Cnr of Richmond & Oxford Street,LEEDERVILLE,WA,6007,Australia,"Cnr of Richmond & Oxford Street, LEEDERVILLE, WA, 6007, Australia",TAFE,-31.933999199999995,115.84157330000001
168,North Metropolitan TAFE,Oral Health Centre - Nedlands,,17 Monash Avenue,NEDLANDS,WA,6009,Australia,"17 Monash Avenue, NEDLANDS, WA, 6009, Australia",TAFE,-31.969983000000003,115.815552
169,North Metropolitan TAFE,Joondalup - McLarty Avenue,,63 McLarty Avenue,JOONDALUP,WA,6027,Australia,"63 McLarty Avenue, JOONDALUP, WA, 6027, Australia",TAFE,-31.738746600000002,115.7648922
170,North Metropolitan TAFE,Joondalup - Kendrew Crescent,,35 Kendrew Cresent,JOONDALUP,WA,6027,Australia,"35 Kendrew Cresent, JOONDALUP, WA, 6027, Australia",TAFE,-31.7478596,115.7726817
171,North Metropolitan TAFE,Clarkson,,298 Connolly Drive,CLARKSON,WA,6030,Australia,"298 Connolly Drive, CLARKSON, WA, 6030, Australia",TAFE,-31.6787636,115.72652430000001
172,North Metropolitan TAFE,Mount Lawley,,Cnr Harold & Lord Streets,MOUNT LAWLEY,WA,6050,Australia,"Cnr Harold & Lord Streets, MOUNT LAWLEY, WA, 6050, Australia",TAFE,-31.939844,115.87570600000001
173,North Metropolitan TAFE,Balga,,18 Loxwood Road,BALGA,WA,6061,Australia,"18 Loxwood Road, BALGA, WA, 6061, Australia",TAFE,-31.8629918,115.8534331
174,North Metropolitan TAFE,Midland,,Cnr Lloyd Street & Eddie Barron Drive ,MIDLAND DC,WA,6936,Australia,"Cnr Lloyd Street & Eddie Barron Drive , MIDLAND DC, WA, 6936, Australia",TAFE,-31.878211999999998,116.01913200000001
175,North Regional TAFE,North Regional TAFE,,16 Parkland Road,OSBORNE PARK,WA,6017,Australia,"16 Parkland Road, OSBORNE PARK, WA, 6017, Australia",TAFE,-31.916537599999998,115.8159591
176,North Regional TAFE,Karratha,,Dampier Road,KARRATHA,WA,6714,Australia,"Dampier Road, KARRATHA, WA, 6714, Australia",TAFE,-20.746019,116.823053
177,North Regional TAFE,Minurmarghali Mia,,Fraser Street,ROEBOURNE,WA,6718,Australia,"Fraser Street, ROEBOURNE, WA, 6718, Australia",TAFE,-20.768579000000003,117.142835
178,North Regional TAFE,Pundulmurra,,Parker Street,SOUTH HEDLAND,WA,6722,Australia,"Parker Street, SOUTH HEDLAND, WA, 6722, Australia",TAFE,-20.397040899999997,118.60039440000001
179,North Regional TAFE,South Hedland,,Hamilton Road,SOUTH HEDLAND,WA,6722,Australia,"Hamilton Road, SOUTH HEDLAND, WA, 6722, Australia",TAFE,-20.397433,118.60010700000001
180,North Regional TAFE,Broome,,68 Cable Beach Road,BROOME,WA,6725,Australia,"68 Cable Beach Road, BROOME, WA, 6725, Australia",TAFE,-17.94965,122.21906200000001
181,North Regional TAFE,Derby,,40 Clarendon Street,DERBY,WA,6728,Australia,"40 Clarendon Street, DERBY, WA, 6728, Australia",TAFE,-17.304937,123.628626
182,North Regional TAFE,Wyndham,,Sharpe Street,WYNDHAM,WA,6740,Australia,"Sharpe Street, WYNDHAM, WA, 6740, Australia",TAFE,-15.486317699999999,128.1148673
183,North Regional TAFE,Kununurra,,Coolibah Drive,KUNUNURRA,WA,6743,Australia,"Coolibah Drive, KUNUNURRA, WA, 6743, Australia",TAFE,-15.770775800000001,128.7347093
184,North Regional TAFE,Tom Price,,Stadium Road,TOM PRICE,WA,6751,Australia,"Stadium Road, TOM PRICE, WA, 6751, Australia",TAFE,-22.694225,117.797546
185,North Regional TAFE,Newman,,Kalgan Drive,NEWMAN,WA,6753,Australia,"Kalgan Drive, NEWMAN, WA, 6753, Australia",TAFE,-23.359484,119.73878
186,North Regional TAFE,Fitzroy Crossing,,Flynn Drive,FITZROY CROSSING,WA,6765,Australia,"Flynn Drive, FITZROY CROSSING, WA, 6765, Australia",TAFE,-18.187864,125.56436699999999
187,North Regional TAFE,Halls Creek,,Terone Street,HALLS CREEK,WA,6770,Australia,"Terone Street, HALLS CREEK, WA, 6770, Australia",TAFE,-18.2258539,127.6705933
188,Northern Sydney Institute,Crows Nest,,149 West Street,CROWS NEST,NSW,2065,Australia,"149 West Street, CROWS NEST, NSW, 2065, Australia",TAFE,-33.827409,151.207736
189,Northern Sydney Institute,St Leonards,,213 Pacific Highway St,Leonards,NSW,2065,Australia,"213 Pacific Highway St, Leonards, NSW, 2065, Australia",TAFE,-33.820992100000005,151.1865354
190,Northern Sydney Institute,Bradfield,,213 Pacific Highway St,Leonards,NSW,2065,Australia,"213 Pacific Highway St, Leonards, NSW, 2065, Australia",TAFE,-33.8209033,151.1865228
191,Northern Sydney Institute,TAFE NSW - Northern Sydney Institute,,213 Pacific Highway,ST LEONARDS,NSW,2065,Australia,"213 Pacific Highway, ST LEONARDS, NSW, 2065, Australia",TAFE,-33.8209033,151.1865228
192,Northern Sydney Institute,Hornsby,,205 Peats Ferry Road,Hornsby,NSW,2077,Australia,"205 Peats Ferry Road, Hornsby, NSW, 2077, Australia",TAFE,-33.699852899999996,151.0967319
193,Northern Sydney Institute,Northern Beaches,,154 Old Pittwater Road,Brookvale,NSW,2100,Australia,"154 Old Pittwater Road, Brookvale, NSW, 2100, Australia",TAFE,-33.7688247,151.2631437
194,Northern Sydney Institute,Ryde,,250 Blaxland Road,Ryde,NSW,2112,Australia,"250 Blaxland Road, Ryde, NSW, 2112, Australia",TAFE,-33.806867600000004,151.1041841
195,Northern Sydney Institute,Meadowbank,,See Street,Meadowbank,NSW,2114,Australia,"See Street, Meadowbank, NSW, 2114, Australia",TAFE,-33.8150554,151.09141530000002
196,Open Training and Education Network (OTEN),TAFE NSW - Open Training andamp; Education Network (OTEN),,51 Wentworth Rd,STRATHFIELD,NSW,2135,Australia,"51 Wentworth Rd, STRATHFIELD, NSW, 2135, Australia",TAFE,-33.8733957,151.0973122
197,Queensland Agricultural Training Colleges,Queensland Agricultural Training Colleges,,203 Tor St,WILSONTON HEIGHTS,QLD,4350,Australia,"203 Tor St, WILSONTON HEIGHTS, QLD, 4350, Australia",TAFE,-27.534810200000003,151.9293553
198,Queensland Agricultural Training Colleges,Toowoomba Training Hub,,203 Tor Street,WILSONTON HEIGHTS,QLD,4350,Australia,"203 Tor Street, WILSONTON HEIGHTS, QLD, 4350, Australia",TAFE,-27.534810200000003,151.9293553
199,Queensland Agricultural Training Colleges,Dalby Training Hub,,463 Bunya Highway,DALBY,QLD,4405,Australia,"463 Bunya Highway, DALBY, QLD, 4405, Australia",TAFE,-27.154776000000002,151.281614
200,Queensland Agricultural Training Colleges,Bundaberg Training Hub,,49 Ashfield Road,KALKIE,QLD,4670,Australia,"49 Ashfield Road, KALKIE, QLD, 4670, Australia",TAFE,-24.8503803,152.39992560000002
201,Queensland Agricultural Training Colleges,Emerald Agricultural College,,26274 Capricorn Highway,EMERALD,QLD,4720,Australia,"26274 Capricorn Highway, EMERALD, QLD, 4720, Australia",TAFE,-23.539005,148.185405
202,Queensland Agricultural Training Colleges,Longreach Pastoral College,,10311 Landsborough Highway,LONGREACH,QLD,4730,Australia,"10311 Landsborough Highway, LONGREACH, QLD, 4730, Australia",TAFE,-23.442372,144.287054
203,Queensland Agricultural Training Colleges,Mackay Training Hub,,120 Wood Street,MACKAY,QLD,4740,Australia,"120 Wood Street, MACKAY, QLD, 4740, Australia",TAFE,-21.144595000000002,149.184993
204,Queensland Agricultural Training Colleges,Ayr Training Hub,,126 Giddy Road,AYR,QLD,4807,Australia,"126 Giddy Road, AYR, QLD, 4807, Australia",TAFE,-19.619072,147.378955
205,Queensland Agricultural Training Colleges,Walkamin Training Hub,,10 Morganbury Road,WALKAMIN,QLD,4872,Australia,"10 Morganbury Road, WALKAMIN, QLD, 4872, Australia",TAFE,-17.1330094,145.4164066
206,Riverina Institute of TAFE,Cootamundra,,117-119 Mackay Street,Cootamundra,NSW,2590,Australia,"117-119 Mackay Street, Cootamundra, NSW, 2590, Australia",TAFE,-34.634659,148.015899
207,Riverina Institute of TAFE,Young,,Caple Street,Young,NSW,2594,Australia,"Caple Street, Young, NSW, 2594, Australia",TAFE,-34.3164099,148.29122619999998
208,Riverina Institute of TAFE,Albury,,Poole Street,Albury,NSW,2640,Australia,"Poole Street, Albury, NSW, 2640, Australia",TAFE,-36.0694963,146.91162590000002
209,Riverina Institute of TAFE,National Environmental Centre,,Ettamogah Road,Thurgoona,NSW,2640,Australia,"Ettamogah Road, Thurgoona, NSW, 2640, Australia",TAFE,-36.0266262,146.9938069
210,Riverina Institute of TAFE,Corowa,,2 Murray Street,Corowa,NSW,2646,Australia,"2 Murray Street, Corowa, NSW, 2646, Australia",TAFE,-35.99505,146.393007
211,Riverina Institute of TAFE,Primary Industries Centre,,Coolamon Road,Wagga Wagga,NSW,2650,Australia,"Coolamon Road, Wagga Wagga, NSW, 2650, Australia",TAFE,-35.065467100000006,147.376217
212,Riverina Institute of TAFE,Wagga Wagga,,Macleay & Coleman Streets,Wagga Wagga,NSW,2650,Australia,"Macleay & Coleman Streets, Wagga Wagga, NSW, 2650, Australia",TAFE,-35.124420799999996,147.3663243
213,Riverina Institute of TAFE,Riverina Institute of TAFE,,Cnr Macleay and Coleman Streets,WAGGA WAGGA,NSW,2650,Australia,"Cnr Macleay and Coleman Streets, WAGGA WAGGA, NSW, 2650, Australia",TAFE,-35.124466,147.366333
214,Riverina Institute of TAFE,Temora,,160-180 Kitchener Road,Temora,NSW,2666,Australia,"160-180 Kitchener Road, Temora, NSW, 2666, Australia",TAFE,-34.4409766,147.5430112
215,Riverina Institute of TAFE,West Wyalong,,86 Wootten Street,West Wyalong,NSW,2671,Australia,"86 Wootten Street, West Wyalong, NSW, 2671, Australia",TAFE,-33.916451,147.19913200000002
216,Riverina Institute of TAFE,Lake Cargelligo,,Yelkin Street Lake,Cargelligo,NSW,2672,Australia,"Yelkin Street Lake, Cargelligo, NSW, 2672, Australia",TAFE,-33.2937615,146.3771421
217,Riverina Institute of TAFE,Griffith,,Neville Place,Griffith,NSW,2680,Australia,"Neville Place, Griffith, NSW, 2680, Australia",TAFE,-34.2871995,146.03644690000002
218,Riverina Institute of TAFE,Narrandera,,54-68 Elwin Street,Narrandera,NSW,2700,Australia,"54-68 Elwin Street, Narrandera, NSW, 2700, Australia",TAFE,-34.7417758,146.5472792
219,Riverina Institute of TAFE,Leeton,,Palm Avenue,Leeton,NSW,2705,Australia,"Palm Avenue, Leeton, NSW, 2705, Australia",TAFE,-34.544925,146.40688
220,Riverina Institute of TAFE,Deniliquin,,Poictiers & Macauley Streets,Deniliquin,NSW,2710,Australia,"Poictiers & Macauley Streets, Deniliquin, NSW, 2710, Australia",TAFE,-35.526452,144.956923
221,Riverina Institute of TAFE,Hay,,178-182 Lachlan Street,Hay,NSW,2711,Australia,"178-182 Lachlan Street, Hay, NSW, 2711, Australia",TAFE,-34.5074157,144.8434466
222,Riverina Institute of TAFE,Finley,,60-68 Denison Street,Finley,NSW,2713,Australia,"60-68 Denison Street, Finley, NSW, 2713, Australia",TAFE,-35.642396000000005,145.576061
223,Riverina Institute of TAFE,Coomealla,,Silver City Highway,Dareton,NSW,2717,Australia,"Silver City Highway, Dareton, NSW, 2717, Australia",TAFE,-34.0954839,142.0611347
224,Riverina Institute of TAFE,Tumut,,Capper & Howick Streets,Tumut,NSW,2720,Australia,"Capper & Howick Streets, Tumut, NSW, 2720, Australia",TAFE,-35.305906,148.221976
225,RMIT University - TAFE,City,,124 La Trobe Street,MELBOURNE,VIC,3000,Australia,"124 La Trobe Street, MELBOURNE, VIC, 3000, Australia",TAFE,-37.8076138,144.9637514
226,RMIT University - TAFE,Point Cook Airfield,,RAAF Williams Base,POINT COOK,VIC,3030,Australia,"RAAF Williams Base, POINT COOK, VIC, 3030, Australia",TAFE,-37.9288501,144.7490832
227,RMIT University - TAFE,Brunswick,,25 Dawson Street,BRUNSWICK,VIC,3056,Australia,"25 Dawson Street, BRUNSWICK, VIC, 3056, Australia",TAFE,-37.7718389,144.957932
228,RMIT University - TAFE,Bundoora,,Plenty Road,BUNDOORA,VIC,3083,Australia,"Plenty Road, BUNDOORA, VIC, 3083, Australia",TAFE,-37.681137,145.063605
229,South Metropolitan TAFE,Carlisle,,Cnr Oats & Bank Streets,CARLISLE,WA,6101,Australia,"Cnr Oats & Bank Streets, CARLISLE, WA, 6101, Australia",TAFE,-31.987036600000003,115.9149863
230,South Metropolitan TAFE,Bentley,,48 Hayman Road,BENTLEY,WA,6102,Australia,"48 Hayman Road, BENTLEY, WA, 6102, Australia",TAFE,-31.9989706,115.895439
231,South Metropolitan TAFE,Thornlie,,44 Burslem Drive,THORNLIE,WA,6108,Australia,"44 Burslem Drive, THORNLIE, WA, 6108, Australia",TAFE,-32.0601076,115.97462479999999
232,South Metropolitan TAFE,Armadale,,40 Commerce Avenue,ARMADALE,WA,6112,Australia,"40 Commerce Avenue, ARMADALE, WA, 6112, Australia",TAFE,-32.1558054,116.01321840000001
233,South Metropolitan TAFE,Murdoch,,130 Murdoch Drive,MURDOCH,WA,6150,Australia,"130 Murdoch Drive, MURDOCH, WA, 6150, Australia",TAFE,-32.073471000000005,115.8458459
234,South Metropolitan TAFE,South Metropolitan TAFE,,Jennalup Street,MURDOCH,WA,6150,Australia,"Jennalup Street, MURDOCH, WA, 6150, Australia",TAFE,-32.073619,115.84560400000001
235,South Metropolitan TAFE,Fremantle Maritime Centre,,1 Fleet Street,FREMANTLE,WA,6160,Australia,"1 Fleet Street, FREMANTLE, WA, 6160, Australia",TAFE,-32.0557706,115.73966850000001
236,South Metropolitan TAFE,Beaconsfield,,15 Grosvenor Street,BEACONSFIELD,WA,6162,Australia,"15 Grosvenor Street, BEACONSFIELD, WA, 6162, Australia",TAFE,-32.066180800000005,115.766598
237,South Metropolitan TAFE,Aerospace Training Centre,,Hope Road,JANDAKOT,WA,6164,Australia,"Hope Road, JANDAKOT, WA, 6164, Australia",TAFE,-32.0957917,115.8762021
238,South Metropolitan TAFE,Henderson,,12 Egmont Road,HENDERSON,WA,6166,Australia,"12 Egmont Road, HENDERSON, WA, 6166, Australia",TAFE,-32.152094399999996,115.7739348
239,South Metropolitan TAFE,Munster,,9 Gardiner Avenue,MUNSTER,WA,6166,Australia,"9 Gardiner Avenue, MUNSTER, WA, 6166, Australia",TAFE,-32.1432403,115.78837140000002
240,South Metropolitan TAFE,Kwinana,,Cnr Gilmore Avenue & Sulphur Road,ORELIA,WA,6167,Australia,"Cnr Gilmore Avenue & Sulphur Road, ORELIA, WA, 6167, Australia",TAFE,-32.2391488,115.81363359999999
241,South Metropolitan TAFE,Rockingham,,Simpson Avenue,ROCKINGHAM,WA,6168,Australia,"Simpson Avenue, ROCKINGHAM, WA, 6168, Australia",TAFE,-32.2791186,115.7580457
242,South Metropolitan TAFE,Mandurah,,Education Drive,MANDURAH,WA,6210,Australia,"Education Drive, MANDURAH, WA, 6210, Australia",TAFE,-32.5169847,115.75588130000001
243,South Regional TAFE,Harvey,,Cnr Uduc Road & South West Highway,HARVEY,WA,6220,Australia,"Cnr Uduc Road & South West Highway, HARVEY, WA, 6220, Australia",TAFE,-33.081874,115.905622
244,South Regional TAFE,Collie,,43 Wittenoom Street,COLLIE,WA,6225,Australia,"43 Wittenoom Street, COLLIE, WA, 6225, Australia",TAFE,-33.3631666,116.1578713
245,South Regional TAFE,Bunbury,,Robertson Drive,BUNBURY,WA,6230,Australia,"Robertson Drive, BUNBURY, WA, 6230, Australia",TAFE,-33.365534000000004,115.65696100000001
246,South Regional TAFE,Manjimup,,Graphite Road,MANJIMUP,WA,6258,Australia,"Graphite Road, MANJIMUP, WA, 6258, Australia",TAFE,-34.2328513,116.13422279999999
247,South Regional TAFE,Busselton,,2 South Street,BUSSELTON,WA,6280,Australia,"2 South Street, BUSSELTON, WA, 6280, Australia",TAFE,-33.6576937,115.32775819999999
248,South Regional TAFE,Margaret River Education,,Tunbridge Street,MARGARET RIVER,WA,6285,Australia,"Tunbridge Street, MARGARET RIVER, WA, 6285, Australia",TAFE,-33.9570716,115.07403500000001
249,South Regional TAFE,Narrogin,,59 Fortune Street,NARROGIN,WA,6312,Australia,"59 Fortune Street, NARROGIN, WA, 6312, Australia",TAFE,-32.93497039,117.1745803
250,South Regional TAFE,Katanning,,9 Dore Street,KATANNING,WA,6317,Australia,"9 Dore Street, KATANNING, WA, 6317, Australia",TAFE,-33.691025,117.557135
251,South Regional TAFE,Mt Barker,Community Resource Centre,1 Lowood Road,MOUNT BARKER,WA,6324,Australia,"1 Lowood Road, MOUNT BARKER, WA, 6324, Australia",TAFE,-34.6230242,117.66059270000001
252,South Regional TAFE,Albany,,5 Anson Road,ALBANY,WA,6330,Australia,"5 Anson Road, ALBANY, WA, 6330, Australia",TAFE,-34.9922316,117.85788319999999
253,South Regional TAFE,Denmark,,South Coast Highway,DENMARK,WA,6333,Australia,"South Coast Highway, DENMARK, WA, 6333, Australia",TAFE,-34.958214,117.36461399999999
254,South Regional TAFE,Esperance,,Pink Lake Road,ESPERANCE,WA,6450,Australia,"Pink Lake Road, ESPERANCE, WA, 6450, Australia",TAFE,-33.859958,121.875674
255,South West TAFE,Colac,,Bromfield Street,COLAC,VIC,3250,Australia,"Bromfield Street, COLAC, VIC, 3250, Australia",TAFE,-38.341053,143.586618
256,South West TAFE,Glenormiston,,333 Glenormiston Road,GLENORMISTON SOUTH,VIC,3265,Australia,"333 Glenormiston Road, GLENORMISTON SOUTH, VIC, 3265, Australia",TAFE,-38.1709997,142.95873980000002
257,South West TAFE,South West TAFE,,197-205 Timor St,WARRNAMBOOL,VIC,3280,Australia,"197-205 Timor St, WARRNAMBOOL, VIC, 3280, Australia",TAFE,-38.385505,142.480487
258,South West TAFE,Sherwood Park,,Princes Highway,WARRNAMBOOL,VIC,3280,Australia,"Princes Highway, WARRNAMBOOL, VIC, 3280, Australia",TAFE,-38.388698,142.54136100000002
259,South West TAFE,Warrnambool,,Timor St,WARRNAMBOOL,VIC,3280,Australia,"Timor St, WARRNAMBOOL, VIC, 3280, Australia",TAFE,-38.38476,142.48031699999999
260,South West TAFE,Hamilton  (Ballarat Road),,200 Ballarat Road,HAMILTON,VIC,3300,Australia,"200 Ballarat Road, HAMILTON, VIC, 3300, Australia",TAFE,-37.743420799999996,142.0585037
261,South West TAFE,Portland,,154 Hurd Street,PORTLAND,VIC,3305,Australia,"154 Hurd Street, PORTLAND, VIC, 3305, Australia",TAFE,-38.3352791,141.60162219999998
262,South Western Sydney Institute,Lidcombe,,73 East Street,Lidcombe,NSW,2141,Australia,"73 East Street, Lidcombe, NSW, 2141, Australia",TAFE,-33.8784631,151.0465118
263,South Western Sydney Institute,Granville,,136 William Street,Granville,NSW,2142,Australia,"136 William Street, Granville, NSW, 2142, Australia",TAFE,-33.835896000000005,151.00453000000002
264,South Western Sydney Institute,Wetherill Park,,The Horsley Drive ,Wetherill Park,NSW,2164,Australia,"The Horsley Drive , Wetherill Park, NSW, 2164, Australia",TAFE,-33.8497405,150.9148455
265,South Western Sydney Institute,Miller,,Cnr Hoxton Park Road & Banks Road,Miller,NSW,2168,Australia,"Cnr Hoxton Park Road & Banks Road, Miller, NSW, 2168, Australia",TAFE,-33.926151399999995,150.873366
266,South Western Sydney Institute,Liverpool,,College Street,Liverpool,NSW,2170,Australia,"College Street, Liverpool, NSW, 2170, Australia",TAFE,-33.9233137,150.9271889
267,South Western Sydney Institute,Chullora,,Cnr Muir Road and Worth Street,CHULLORA,NSW,2190,Australia,"Cnr Muir Road and Worth Street, CHULLORA, NSW, 2190, Australia",TAFE,-33.893284,151.046817
268,South Western Sydney Institute,Bankstown,,500 Chapel Road,Bankstown,NSW,2200,Australia,"500 Chapel Road, Bankstown, NSW, 2200, Australia",TAFE,-33.9120005,151.03439980000002
269,South Western Sydney Institute,TAFE NSW - South Western Sydney Institute,,500 Chapel Street Bankstown College,BANKSTOWN,NSW,2200,Australia,"500 Chapel Street Bankstown College, BANKSTOWN, NSW, 2200, Australia",TAFE,-33.9120005,151.03439980000002
270,South Western Sydney Institute,Padstow,,Raine Road,Padstow,NSW,2211,Australia,"Raine Road, Padstow, NSW, 2211, Australia",TAFE,-33.948307,151.025757
271,South Western Sydney Institute,Campbelltown,,181 Narellan Road,Campbelltown,NSW,2560,Australia,"181 Narellan Road, Campbelltown, NSW, 2560, Australia",TAFE,-34.0674828,150.7985967
272,South Western Sydney Institute,Macquarie Fields,,32 Victoria Road,Macquarie Fields,NSW,2564,Australia,"32 Victoria Road, Macquarie Fields, NSW, 2564, Australia",TAFE,-33.9836931,150.8926832
273,Sunraysia Institute of TAFE,Mallee,,46 Oke Street,OUYEN,VIC,3490,Australia,"46 Oke Street, OUYEN, VIC, 3490, Australia",TAFE,-35.0698,142.315
274,Sunraysia Institute of TAFE,Mildura,,453 Benetook Avenue,MILDURA,VIC,3500,Australia,"453 Benetook Avenue, MILDURA, VIC, 3500, Australia",TAFE,-34.20326420000001,142.167583
275,Sunraysia Institute of TAFE,Sunraysia Institute of TAFE,,437-555 Benetook Avenue,MILDURA,VIC,3500,Australia,"437-555 Benetook Avenue, MILDURA, VIC, 3500, Australia",TAFE,-34.203423,142.168239
276,Sunraysia Institute of TAFE,Robinvale,,160 Bromley Road,ROBINVALE,VIC,3549,Australia,"160 Bromley Road, ROBINVALE, VIC, 3549, Australia",TAFE,-34.585325899999994,142.7709858
277,Sunraysia Institute of TAFE,Swan Hill,,64 Sea Lake-Swan Hill Road,SWAN HILL,VIC,3585,Australia,"64 Sea Lake-Swan Hill Road, SWAN HILL, VIC, 3585, Australia",TAFE,-35.3420037,143.5324859
278,Swinburne University of Technology - TAFE,Hawthorn,,John Street,HAWTHORN,VIC,3122,Australia,"John Street, HAWTHORN, VIC, 3122, Australia",TAFE,-37.8221504,145.03895459999998
279,Swinburne University of Technology - TAFE,Croydon,,12-50 Norton Road,CROYDON,VIC,3136,Australia,"12-50 Norton Road, CROYDON, VIC, 3136, Australia",TAFE,-37.8019063,145.28566899999998
280,Swinburne University of Technology - TAFE,Wantirna,,369 Stud Road,WANTIRNA,VIC,3140,Australia,"369 Stud Road, WANTIRNA, VIC, 3140, Australia",TAFE,-37.873484499999996,145.2348976
281,Sydney Institute,Ultimo,,651-731 Harris Street,Ultimo,NSW,2007,Australia,"651-731 Harris Street, Ultimo, NSW, 2007, Australia",TAFE,-33.881958600000004,151.1994771
282,Sydney Institute,TAFE NSW - Sydney Institute,,Building A Mary Ann Street,ULTIMO,NSW,2007,Australia,"Building A Mary Ann Street, ULTIMO, NSW, 2007, Australia",TAFE,-27.994913,153.391006
283,Sydney Institute,Eora,,333 Abercrombie Street,Chippendale,NSW,2008,Australia,"333 Abercrombie Street, Chippendale, NSW, 2008, Australia",TAFE,-33.891839700000006,151.1928791
284,Sydney Institute,Randwick,,Cnr of Darley Road & King Street,Randwick,NSW,2031,Australia,"Cnr of Darley Road & King Street, Randwick, NSW, 2031, Australia",TAFE,-33.905943,151.23264
285,Sydney Institute,Design Centre Enmore,,110 Edgeware Road,Enmore,NSW,2042,Australia,"110 Edgeware Road, Enmore, NSW, 2042, Australia",TAFE,-33.902482,151.1734236
286,Sydney Institute,Petersham,,27 Crystal Street,Petersham,NSW,2049,Australia,"27 Crystal Street, Petersham, NSW, 2049, Australia",TAFE,-33.889348,151.1589185
287,Sydney Institute,St George,,Cnr Princes Highway & President Avenue,Kogarah,NSW,2217,Australia,"Cnr Princes Highway & President Avenue, Kogarah, NSW, 2217, Australia",TAFE,-33.9647535,151.1379533
288,Sydney Institute,Gymea,,Cnr of Hotham Road & Kingsway,Gymea,NSW,2227,Australia,"Cnr of Hotham Road & Kingsway, Gymea, NSW, 2227, Australia",TAFE,-34.0313767,151.0814408
289,Sydney Institute,Loftus,,Rawson Avenue,Loftus,NSW,2232,Australia,"Rawson Avenue, Loftus, NSW, 2232, Australia",TAFE,-34.036076200000004,151.05444880000002
290,TAFE International Western Australia,TAFE International Western Australia,,140 Royal Street,East Perth,WA,6004,Australia,"140 Royal Street, East Perth, WA, 6004, Australia",TAFE,-31.950779999999998,115.872716
291,TAFE New England,Boggabilla,,South Street,BOGGABILLA,NSW,2409,Australia,"South Street, BOGGABILLA, NSW, 2409, Australia",TAFE,-28.6146,150.360195
292,TAFE NSW,TAFE NSW,,695-731 Harris Street,ULTIMO,NSW,2007,Australia,"695-731 Harris Street, ULTIMO, NSW, 2007, Australia",TAFE,-33.881695,151.200173
293,TAFE Queensland,TAFE Queensland,,133 Mary Street,BRISBANE,QLD,4000,Australia,"133 Mary Street, BRISBANE, QLD, 4000, Australia",TAFE,-27.471142600000004,153.0288771
294,TAFE Queensland,Bracken Ridge,,157 Norris Road,BRACKEN RIDGE,QLD,4017,Australia,"157 Norris Road, BRACKEN RIDGE, QLD, 4017, Australia",TAFE,-27.319987599999997,153.0251518
295,TAFE Queensland,Redcliffe,,64-68 Klingner Road,REDCLIFFE,QLD,4020,Australia,"64-68 Klingner Road, REDCLIFFE, QLD, 4020, Australia",TAFE,-27.222153999999996,153.10913
296,TAFE Queensland,Grovely,,Fitzsimmons Street,KEPERRA,QLD,4054,Australia,"Fitzsimmons Street, KEPERRA, QLD, 4054, Australia",TAFE,-27.4015381,152.9622626
297,TAFE Queensland,Southbank,,66 Ernest Street,SOUTH BRISBANE,QLD,4101,Australia,"66 Ernest Street, SOUTH BRISBANE, QLD, 4101, Australia",TAFE,-27.4805462,153.02092050000002
298,TAFE Queensland,Browns Plains,,61 Grand Plaza Drive,BROWNS PLAINS,QLD,4118,Australia,"61 Grand Plaza Drive, BROWNS PLAINS, QLD, 4118, Australia",TAFE,-27.6651673,153.0415383
299,TAFE Queensland,Mt Gravatt,,1030 Cavendish Road,MOUNT GRAVATT,QLD,4122,Australia,"1030 Cavendish Road, MOUNT GRAVATT, QLD, 4122, Australia",TAFE,-27.526065000000003,153.0909823
300,TAFE Queensland,Loganlea,,50-68 Armstrong Road,MEADOWBROOK,QLD,4131,Australia,"50-68 Armstrong Road, MEADOWBROOK, QLD, 4131, Australia",TAFE,-27.6701603,153.14534369999998
301,TAFE Queensland,Alexandra Hills,,Windemere Road,ALEXANDRA HILLS,QLD,4161,Australia,"Windemere Road, ALEXANDRA HILLS, QLD, 4161, Australia",TAFE,-27.5252646,153.21316919999998
302,TAFE Queensland,Coomera,,198 Foxwell Road,COOMERA,QLD,4209,Australia,"198 Foxwell Road, COOMERA, QLD, 4209, Australia",TAFE,-27.8532157,153.321181
303,TAFE Queensland,Ashmore,,Cnr Heeb Street and Benowa Road,ASHMORE,QLD,4214,Australia,"Cnr Heeb Street and Benowa Road, ASHMORE, QLD, 4214, Australia",TAFE,-27.994938,153.391001
304,TAFE Queensland,Southport,,91-99 Scarborough Street,SOUTHPORT,QLD,4215,Australia,"91-99 Scarborough Street, SOUTHPORT, QLD, 4215, Australia",TAFE,-27.966839399999998,153.4142273
305,TAFE Queensland,Coolangatta,,5 Scott Street,COOLANGATTA,QLD,4225,Australia,"5 Scott Street, COOLANGATTA, QLD, 4225, Australia",TAFE,-28.1702602,153.5394571
306,TAFE Queensland,Caboolture ,,Tallon Street,CABOOLTURE,QLD,4510,Australia,"Tallon Street, CABOOLTURE, QLD, 4510, Australia",TAFE,-27.0746226,152.9596406
307,TAFE Queensland,Mooloolaba,,34 Lady Musgrave Drive,MOUNTAIN CREEK,QLD,4557,Australia,"34 Lady Musgrave Drive, MOUNTAIN CREEK, QLD, 4557, Australia",TAFE,-26.6926831,153.10620690000002
308,TAFE Queensland,Maroochydore,,170 Horton Parade,MAROOCHYDORE,QLD,4558,Australia,"170 Horton Parade, MAROOCHYDORE, QLD, 4558, Australia",TAFE,-26.653217100000003,153.0898004
309,TAFE Queensland,Nambour,,91 Windsor Road,NAMBOUR,QLD,4560,Australia,"91 Windsor Road, NAMBOUR, QLD, 4560, Australia",TAFE,-26.629721999999997,152.943378
310,TAFE Queensland,Gympie,,71 Cartwright Road,GYMPIE,QLD,4570,Australia,"71 Cartwright Road, GYMPIE, QLD, 4570, Australia",TAFE,-26.1700672,152.6599207
311,TAFE Queensland,Maryborough,,89 Adelaide Street,MARYBOROUGH,QLD,4650,Australia,"89 Adelaide Street, MARYBOROUGH, QLD, 4650, Australia",TAFE,-25.5417138,152.699504
312,TAFE Queensland,Hervey Bay,,47 - 95 Urraween Road,HERVEY BAY,QLD,4655,Australia,"47 - 95 Urraween Road, HERVEY BAY, QLD, 4655, Australia",TAFE,-25.2979807,152.82994630000002
313,TAFE Queensland,Bundaberg,,118 Walker Street,BUNDABERG,QLD,4670,Australia,"118 Walker Street, BUNDABERG, QLD, 4670, Australia",TAFE,-24.8797641,152.34494130000002
314,TAFE Queensland,Whitsundays,,Shute Harbour Road,CANNONVALE,QLD,4802,Australia,"Shute Harbour Road, CANNONVALE, QLD, 4802, Australia",TAFE,-20.278451899999997,148.6967369
315,TAFE Queensland,Bowen,,98-158 Queens Road,BOWEN,QLD,4805,Australia,"98-158 Queens Road, BOWEN, QLD, 4805, Australia",TAFE,-19.997373100000004,148.2476983
316,TAFE Queensland,Burdekin,,Seventeenth Street,HOME HILL,QLD,4806,Australia,"Seventeenth Street, HOME HILL, QLD, 4806, Australia",TAFE,-19.657105800000004,147.4061083
317,TAFE Queensland,Townsville,,Cnr Fulham Road & Hugh Street,PIMLICO,QLD,4812,Australia,"Cnr Fulham Road & Hugh Street, PIMLICO, QLD, 4812, Australia",TAFE,-19.287416699999998,146.7808222
318,TAFE Queensland,Aitkenvale,,266 Ross River Road,AITKENVALE,QLD,4814,Australia,"266 Ross River Road, AITKENVALE, QLD, 4814, Australia",TAFE,-19.297181600000002,146.76843169999998
319,TAFE Queensland,Palm Island,,Beach Road,PALM ISLAND,QLD,4816,Australia,"Beach Road, PALM ISLAND, QLD, 4816, Australia",TAFE,-18.7371922,146.5781161
320,TAFE Queensland,Townsville Trade Training Ctr,,763 Ingham Road,BOHLE,QLD,4818,Australia,"763 Ingham Road, BOHLE, QLD, 4818, Australia",TAFE,-19.2598318,146.7274404
321,TAFE Queensland,Charters Towers,Dalyrmple Trade Training Centre,1-13 Macpherson Street,CHARTERS TOWERS,QLD,4820,Australia,"1-13 Macpherson Street, CHARTERS TOWERS, QLD, 4820, Australia",TAFE,-20.0886796,146.2681699
322,TAFE Queensland,Cloncurry,,35 Ramsay Street,CLONCURRY,QLD,4824,Australia,"35 Ramsay Street, CLONCURRY, QLD, 4824, Australia",TAFE,-20.724115700000002,139.51124240000001
323,TAFE Queensland,Mount Isa,,165-179 Abel Smith Parade,MOUNT ISA,QLD,4825,Australia,"165-179 Abel Smith Parade, MOUNT ISA, QLD, 4825, Australia",TAFE,-20.724115700000002,139.51124240000001
324,TAFE Queensland,Ingham,,74 Townsville Road,INGHAM,QLD,4850,Australia,"74 Townsville Road, INGHAM, QLD, 4850, Australia",TAFE,-18.6515921,146.15490280000003
325,TAFE Queensland,Innisfail,,45 Flying Fish Point Road,INNISFAIL,QLD,4860,Australia,"45 Flying Fish Point Road, INNISFAIL, QLD, 4860, Australia",TAFE,-17.515079,146.0369101
326,TAFE Queensland,Cairns,,Eureka Street,CAIRNS,QLD,4870,Australia,"Eureka Street, CAIRNS, QLD, 4870, Australia",TAFE,-16.9215415,145.7554141
327,TAFE Queensland,Cairns - Great Barrier Reef International Marine College,,55-61 Tingira Street,PORTSMITH,QLD,4870,Australia,"55-61 Tingira Street, PORTSMITH, QLD, 4870, Australia",TAFE,-16.949395199999998,145.7701481
328,TAFE Queensland,Thursday Island,,19 Aplin Road,THURSDAY ISLAND,QLD,4875,Australia,"19 Aplin Road, THURSDAY ISLAND, QLD, 4875, Australia",TAFE,-10.578319800000001,142.215384
329,TAFE Queensland,Bamaga,,Sebasio Street,BAMAGA,QLD,4876,Australia,"Sebasio Street, BAMAGA, QLD, 4876, Australia",TAFE,-10.894242199999999,142.3884802
330,TAFE Queensland,Atherton,Atherton State High School,Maunds Road,ATHERTON,QLD,4883,Australia,"Maunds Road, ATHERTON, QLD, 4883, Australia",TAFE,-17.258635,145.488925
331,TAFE Queensland,Normanton,,Green Street,NORMANTON,QLD,4890,Australia,"Green Street, NORMANTON, QLD, 4890, Australia",TAFE,-17.676397,141.078336
332,TAFE Queensland Skills Tech,Eagle Farm,,776 Kingsford Smith Drive,EAGLE FARM,QLD,4009,Australia,"776 Kingsford Smith Drive, EAGLE FARM, QLD, 4009, Australia",TAFE,-27.432643900000002,153.0798916
333,TAFE Queensland Skills Tech,Eagle Farm,,776 Kingsford Smith Drive,EAGLE FARM,QLD,4009,Australia,"776 Kingsford Smith Drive, EAGLE FARM, QLD, 4009, Australia",TAFE,-27.432643900000002,153.0798916
334,TAFE Queensland Skills Tech,Bracken Ridge,,157 Norris Road,BRACKEN RIDGE,QLD,4017,Australia,"157 Norris Road, BRACKEN RIDGE, QLD, 4017, Australia",TAFE,-27.3198615,153.02506619999997
335,TAFE Queensland Skills Tech,Acacia Ridge,,247 Bradman Street,ACACIA RIDGE,QLD,4110,Australia,"247 Bradman Street, ACACIA RIDGE, QLD, 4110, Australia",TAFE,-27.5865189,153.0322649
336,TAFE Queensland South West,Inala,,54 Thrush Street,INALA,QLD,4077,Australia,"54 Thrush Street, INALA, QLD, 4077, Australia",TAFE,-27.6028804,152.9762667
337,TAFE Queensland South West,Springfield,,Education City Drive,SPRINGFIELD,QLD,4300,Australia,"Education City Drive, SPRINGFIELD, QLD, 4300, Australia",TAFE,-27.683931,152.90576769999998
338,TAFE Queensland South West,Bundamba,,Cnr Mary & Byrne Streets,BUNDAMBA,QLD,4304,Australia,"Cnr Mary & Byrne Streets, BUNDAMBA, QLD, 4304, Australia",TAFE,-27.604718800000004,152.81066289999998
339,TAFE Queensland South West,Toowoomba,,100 Bridge Street,TOOWOOMBA,QLD,4350,Australia,"100 Bridge Street, TOOWOOMBA, QLD, 4350, Australia",TAFE,-27.553332799999996,151.9634109
340,TAFE Queensland South West,Warwick,,200 Dragon Street,WARWICK,QLD,4370,Australia,"200 Dragon Street, WARWICK, QLD, 4370, Australia",TAFE,-28.232613300000004,152.0260408
341,TAFE Queensland South West,Dalby,,463 Bunya Highway,DALBY,QLD,4405,Australia,"463 Bunya Highway, DALBY, QLD, 4405, Australia",TAFE,-27.154776000000002,151.281614
342,TAFE Queensland South West,Chinchilla,,9 Zeller Street,CHINCHILLA,QLD,4413,Australia,"9 Zeller Street, CHINCHILLA, QLD, 4413, Australia",TAFE,-26.7503412,150.6194727
343,TAFE Queensland South West,Roma,,Timbury Street,ROMA,QLD,4455,Australia,"Timbury Street, ROMA, QLD, 4455, Australia",TAFE,-26.567215,148.779396
344,TAFE Queensland South West,Nurunderi,,Collins Road,CHERBOURG,QLD,4605,Australia,"Collins Road, CHERBOURG, QLD, 4605, Australia",TAFE,-26.2948291,151.95675369999998
345,TAFE Queensland South West,Kingaroy,,Cnr Bunya Highway & Geritz Road,KINGAROY,QLD,4610,Australia,"Cnr Bunya Highway & Geritz Road, KINGAROY, QLD, 4610, Australia",TAFE,-26.571338,151.825976
346,TAFE South Australia,Head office,,11 - 29 Waymouth Street,ADELAIDE,SA,5000,Australia,"11 - 29 Waymouth Street, ADELAIDE, SA, 5000, Australia",TAFE,-34.926173,138.598856
347,TAFE South Australia,Adelaide College of the Arts,,39 Light Square,ADELAIDE,SA,5000,Australia,"39 Light Square, ADELAIDE, SA, 5000, Australia",TAFE,-34.92454,138.59266399999998
348,TAFE South Australia,Adelaide,,120 Currie Street,ADELAIDE,SA,5000,Australia,"120 Currie Street, ADELAIDE, SA, 5000, Australia",TAFE,-34.92398970000001,138.5949204
349,TAFE South Australia,English Language Services,Renaissance Centre,127 Rundle Mall,ADELAIDE,SA,5000,Australia,"127 Rundle Mall, ADELAIDE, SA, 5000, Australia",TAFE,-34.9243902,138.5953781
350,TAFE South Australia,Croydon Park,,49 Goodall Avenue,CROYDON PARK,SA,5008,Australia,"49 Goodall Avenue, CROYDON PARK, SA, 5008, Australia",TAFE,-34.876680900000004,138.556919
351,TAFE South Australia,Regency,,137 Days Rd,REGENCY PARK,SA,5010,Australia,"137 Days Rd, REGENCY PARK, SA, 5010, Australia",TAFE,-34.87322460000001,138.5685417
352,TAFE South Australia,Port Adelaide,,1 Mundy Street,PORT ADELAIDE,SA,5015,Australia,"1 Mundy Street, PORT ADELAIDE, SA, 5015, Australia",TAFE,-34.843752,138.500085
353,TAFE South Australia,Marleston,,254 Richmond Road,MARLESTON,SA,5033,Australia,"254 Richmond Road, MARLESTON, SA, 5033, Australia",TAFE,-34.9431646,138.555554
354,TAFE South Australia,Panorama,,621 Goodwood Road,PANORAMA,SA,5041,Australia,"621 Goodwood Road, PANORAMA, SA, 5041, Australia",TAFE,-34.9940297,138.5940372
355,TAFE South Australia,Morphettville,Horse Skills Centre,1 Park Terrace,MORPHETTVILLE,SA,5043,Australia,"1 Park Terrace, MORPHETTVILLE, SA, 5043, Australia",TAFE,-34.973040999999995,138.545559
356,TAFE South Australia,Urrbrae,,505 Fullarton Road,NETHERBY,SA,5062,Australia,"505 Fullarton Road, NETHERBY, SA, 5062, Australia",TAFE,-34.967065999999996,138.625352
357,TAFE South Australia,Gilles Plains,,33 Blacks Road,GILLES PLAINS,SA,5086,Australia,"33 Blacks Road, GILLES PLAINS, SA, 5086, Australia",TAFE,-34.85153,138.651755
358,TAFE South Australia,Tea Tree Gully,,100 Smart Rd,MODBURY,SA,5092,Australia,"100 Smart Rd, MODBURY, SA, 5092, Australia",TAFE,-34.832307,138.695694
359,TAFE South Australia,Parafield,,Kittyhawk Lane,PARAFIELD AIRPORT,SA,5106,Australia,"Kittyhawk Lane, PARAFIELD AIRPORT, SA, 5106, Australia",TAFE,-34.788682,138.633174
360,TAFE South Australia,Salisbury,,16 Wiltshire Street,SALISBURY,SA,5108,Australia,"16 Wiltshire Street, SALISBURY, SA, 5108, Australia",TAFE,-34.762947,138.6474
361,TAFE South Australia,Elizabeth,,2 Woodford Road,ELIZABETH,SA,5112,Australia,"2 Woodford Road, ELIZABETH, SA, 5112, Australia",TAFE,-34.7134152,138.67074119999998
362,TAFE South Australia,Gawler,,43 High Street,GAWLER,SA,5118,Australia,"43 High Street, GAWLER, SA, 5118, Australia",TAFE,-34.597207399999995,138.7500585
363,TAFE South Australia,Noarlunga,Noarlunga Centre,Ramsay Place,NOARLUNGA CENTRE,SA,5168,Australia,"Ramsay Place, NOARLUNGA CENTRE, SA, 5168, Australia",TAFE,-35.139967,138.497292
364,TAFE South Australia,Victor Harbor,,19 George Main Road,VICTOR HARBOR,SA,5211,Australia,"19 George Main Road, VICTOR HARBOR, SA, 5211, Australia",TAFE,-35.556554999999996,138.605127
365,TAFE South Australia,Kangaroo Island Learning Centre,,5-7 Centenary Avenue,KINGSCOTE,SA,5223,Australia,"5-7 Centenary Avenue, KINGSCOTE, SA, 5223, Australia",TAFE,-35.651167,137.63313
366,TAFE South Australia,Mount Barker,,3-5 Dumas Street,MOUNT BARKER,SA,5251,Australia,"3-5 Dumas Street, MOUNT BARKER, SA, 5251, Australia",TAFE,-35.068789,138.854319
367,TAFE South Australia,Murray Bridge,,52-68 Swanport Road,MURRAY BRIDGE,SA,5253,Australia,"52-68 Swanport Road, MURRAY BRIDGE, SA, 5253, Australia",TAFE,-35.125572999999996,139.27783200000002
368,TAFE South Australia,Naracoorte,,19 Gordon Street,NARACOORTE,SA,5271,Australia,"19 Gordon Street, NARACOORTE, SA, 5271, Australia",TAFE,-36.960059,140.743184
369,TAFE South Australia,Kingston Learning Centre,Kingston Community School,46 East Terrace,KINGSTON SE,SA,5275,Australia,"46 East Terrace, KINGSTON SE, SA, 5275, Australia",TAFE,-36.8374167,139.855665
370,TAFE South Australia,Mount Gambier,,Wireless Road West,MOUNT GAMBIER,SA,5290,Australia,"Wireless Road West, MOUNT GAMBIER, SA, 5290, Australia",TAFE,-37.806219,140.766497
371,TAFE South Australia,Waikerie,,Gaeta Road,WAIKERIE,SA,5330,Australia,"Gaeta Road, WAIKERIE, SA, 5330, Australia",TAFE,-34.1841869,139.9765993
372,TAFE South Australia,Renmark,,Thurk Street,RENMARK,SA,5341,Australia,"Thurk Street, RENMARK, SA, 5341, Australia",TAFE,-34.17208,140.742346
373,TAFE South Australia,Berri,,Kay Avenue,BERRI,SA,5343,Australia,"Kay Avenue, BERRI, SA, 5343, Australia",TAFE,-34.276778,140.611253
374,TAFE South Australia,Barossa Valley,,Old Kapunda Road,NURIOOTPA,SA,5355,Australia,"Old Kapunda Road, NURIOOTPA, SA, 5355, Australia",TAFE,-34.4625334,138.9841104
375,TAFE South Australia,Roseworthy,,3 Mudla Wirra Rd,ROSEWORTHY,SA,5371,Australia,"3 Mudla Wirra Rd, ROSEWORTHY, SA, 5371, Australia",TAFE,-34.528422,138.688309
376,TAFE South Australia,Clare,,155 Main North Road,CLARE,SA,5453,Australia,"155 Main North Road, CLARE, SA, 5453, Australia",TAFE,-33.839128,138.616222
377,TAFE South Australia,Jamestown,,Humphris Terrace,JAMESTOWN,SA,5491,Australia,"Humphris Terrace, JAMESTOWN, SA, 5491, Australia",TAFE,-33.204902399999995,138.6093581
378,TAFE South Australia,Port Pirie,,Mary Elie Street,PORT PIRIE,SA,5540,Australia,"Mary Elie Street, PORT PIRIE, SA, 5540, Australia",TAFE,-33.183856,138.005689
379,TAFE South Australia,Kadina,,1A Doswell Terrace,KADINA,SA,5554,Australia,"1A Doswell Terrace, KADINA, SA, 5554, Australia",TAFE,-33.961892999999996,137.708989
380,TAFE South Australia,Narungga Aboriginal Access Centre,,Point Pearce (via Maitland),POINT PEARCE,SA,5573,Australia,"Point Pearce (via Maitland), POINT PEARCE, SA, 5573, Australia",TAFE,-34.415787,137.501004
381,TAFE South Australia,Yorketown,,1 School Road,YORKETOWN,SA,5576,Australia,"1 School Road, YORKETOWN, SA, 5576, Australia",TAFE,-35.0165679,137.6146998
382,TAFE South Australia,Port Lincoln,,2 London Street,PORT LINCOLN,SA,5606,Australia,"2 London Street, PORT LINCOLN, SA, 5606, Australia",TAFE,-34.723795700000004,135.86602299999998
383,TAFE South Australia,Whyalla,,141 Nicolson Avenue,WHYALLA NORRIE,SA,5608,Australia,"141 Nicolson Avenue, WHYALLA NORRIE, SA, 5608, Australia",TAFE,-33.029278999999995,137.54146200000002
384,TAFE South Australia,Cleve,,27B Main Road,CLEVE,SA,5640,Australia,"27B Main Road, CLEVE, SA, 5640, Australia",TAFE,-33.7019546,136.49312890000002
385,TAFE South Australia,Kimba,,49 High Street,KIMBA,SA,5641,Australia,"49 High Street, KIMBA, SA, 5641, Australia",TAFE,-33.1381718,136.4205468
386,TAFE South Australia,Medley Terrace,,Medley Terrace,WUDINNA,SA,5652,Australia,"Medley Terrace, WUDINNA, SA, 5652, Australia",TAFE,-33.04552,135.462922
387,TAFE South Australia,Ceduna,,Decres Bay Road,CEDUNA,SA,5690,Australia,"Decres Bay Road, CEDUNA, SA, 5690, Australia",TAFE,-32.138218,133.67656599999998
388,TAFE South Australia,Yalata Aboriginal Access Centre,,Yalata via Ceduna,CEDUNA,SA,5690,Australia,"Yalata via Ceduna, CEDUNA, SA, 5690, Australia",TAFE,-31.48058928,131.8420365
389,TAFE South Australia,Port Augusta,,9-39 Carlton Parade,PORT AUGUSTA,SA,5700,Australia,"9-39 Carlton Parade, PORT AUGUSTA, SA, 5700, Australia",TAFE,-32.4944298,137.77239730000002
390,TAFE South Australia,Coober Pedy,,Hutchinson Street,COOBER PEDY,SA,5723,Australia,"Hutchinson Street, COOBER PEDY, SA, 5723, Australia",TAFE,-29.011565,134.754438
391,TAFE South Australia,Roxby Downs,,Richardson Place,ROXBY DOWNS,SA,5725,Australia,"Richardson Place, ROXBY DOWNS, SA, 5725, Australia",TAFE,-30.561068,136.897196
392,TAFE South Australia,Marree Aboriginal Access Centre,,Old School Builiding,MARREE,SA,5733,Australia,"Old School Builiding, MARREE, SA, 5733, Australia",TAFE,-25.274398,133.775136
393,TAFE South Australia,Oodnadatta Aboriginal Access Centre,,Kutaya Tce,OODNADATTA,SA,5734,Australia,"Kutaya Tce, OODNADATTA, SA, 5734, Australia",TAFE,-27.548916499999997,135.4466616
394,TAFE Western,TAFE Western,,Forest Road,ORANGE,NSW,2800,Australia,"Forest Road, ORANGE, NSW, 2800, Australia",TAFE,-33.311465999999996,149.094737
395,TasTAFE,Bathurst Street,,26 Bathurst St,Hobart,TAS,7000,Australia,"26 Bathurst St, Hobart, TAS, 7000, Australia",TAFE,-42.87873629999999,147.32877240000002
396,TasTAFE,Drysdale,,59 Collins St,Hobart,TAS,7000,Australia,"59 Collins St, Hobart, TAS, 7000, Australia",TAFE,-42.881438200000005,147.3291689
397,TasTAFE,TasTAFE,,75 Campbell Street,HOBART,TAS,7000,Australia,"75 Campbell Street, HOBART, TAS, 7000, Australia",TAFE,-42.8778576,147.3288479
398,TasTAFE,Campbell Street,,75 Campbell St,Hobart,TAS,7000,Australia,"75 Campbell St, Hobart, TAS, 7000, Australia",TAFE,-42.877925700000006,147.32883869999998
399,TasTAFE,Hunter Street,Centre for the Arts Building,37 Hunter St,Hobart,TAS,7000,Australia,"37 Hunter St, Hobart, TAS, 7000, Australia",TAFE,-42.87873629999999,147.32877240000002
400,TasTAFE,Bender Drive,,8 Bender Dr,Derwent Park,TAS,7009,Australia,"8 Bender Dr, Derwent Park, TAS, 7009, Australia",TAFE,-42.8283006,147.3070404
401,TasTAFE,Claremont,,61 Claremont Link Rd,Claremont,TAS,7011,Australia,"61 Claremont Link Rd, Claremont, TAS, 7011, Australia",TAFE,-42.795865500000005,147.2503862
402,TasTAFE,Clarence,,4A Bounty St,Warrane,TAS,7018,Australia,"4A Bounty St, Warrane, TAS, 7018, Australia",TAFE,-42.84985770000001,147.38076569999998
403,TasTAFE,Bridgewater Regional Trade Training Centre,,55 Eddington Street,BRIDGEWATER,TAS,7030,Australia,"55 Eddington Street, BRIDGEWATER, TAS, 7030, Australia",TAFE,-42.738073,147.240037
404,TasTAFE,Huon Valley Trade Training Centre,,101 Wilmot Road,HUONVILLE,TAS,7109,Australia,"101 Wilmot Road, HUONVILLE, TAS, 7109, Australia",TAFE,-43.0239849,147.04331240000002
405,TasTAFE,New Norfolk,Derwent Valley Community House,"The Avenue, Willow Court",New Norfolk,TAS ,7140,Australia,"The Avenue, Willow Court, New Norfolk, TAS , 7140, Australia",TAFE,-42.7833755,147.0622335
406,TasTAFE,Break O'Day Trade Training Centre,,Groom Street,ST HELENS,TAS,7216,Australia,"Groom Street, ST HELENS, TAS, 7216, Australia",TAFE,-41.3244977,148.2477122
407,TasTAFE,Alanvale,,54A Alanvale Rd,Newnham,TAS,7248,Australia,"54A Alanvale Rd, Newnham, TAS, 7248, Australia",TAFE,-41.3913169,147.1222978
408,TasTAFE,Launceston,,10-16 Wellington St,Launceston,TAS,7250,Australia,"10-16 Wellington St, Launceston, TAS, 7250, Australia",TAFE,-41.438089700000006,147.134504
409,TasTAFE,Launceston,,93 Paterson St,Launceston,TAS,7250,Australia,"93 Paterson St, Launceston, TAS, 7250, Australia",TAFE,-41.438089700000006,147.134504
410,TasTAFE,Inveresk,,Invermay Rd,Launceston,TAS,7250,Australia,"Invermay Rd, Launceston, TAS, 7250, Australia",TAFE,-41.4280943,147.1402139
411,TasTAFE,George Town Trade Training Centre,,147-185 Agnes Street,GEORGE TOWN,TAS,7253,Australia,"147-185 Agnes Street, GEORGE TOWN, TAS, 7253, Australia",TAFE,-41.099841,146.828978
412,TasTAFE,Dorset Trade Training Centre,,20 Copplestone Street,SCOTTSDALE,TAS,7260,Australia,"20 Copplestone Street, SCOTTSDALE, TAS, 7260, Australia",TAFE,-41.154579,147.50964299999998
413,TasTAFE,Deloraine Trade Training Centre,,Landsdowne Place,DELORAINE,TAS,7304,Australia,"Landsdowne Place, DELORAINE, TAS, 7304, Australia",TAFE,-41.529749,146.66018
414,TasTAFE,Devonport,,20-36 Valley Rd,Devonport,TAS,7310,Australia,"20-36 Valley Rd, Devonport, TAS, 7310, Australia",TAFE,-41.184967,146.34471000000002
415,TasTAFE,Burnie,,41-43 Mooreville Rd,Shorewell Park,TAS,7320,Australia,"41-43 Mooreville Rd, Shorewell Park, TAS, 7320, Australia",TAFE,-41.0629247,145.8808145
416,TasTAFE,Smithton,,13 Montagu Road,SMITHTON,TAS,7330,Australia,"13 Montagu Road, SMITHTON, TAS, 7330, Australia",TAFE,-40.840226,145.117697
417,TasTAFE,Circular Head Trade Training Centre,,Montagu Road,SMITHTON,TAS,7330,Australia,"Montagu Road, SMITHTON, TAS, 7330, Australia",TAFE,-40.840007,145.117876
418,Victoria University - TAFE,Sydney,,160-166 Sussex Street,SYDNEY,NSW,2000,Australia,"160-166 Sussex Street, SYDNEY, NSW, 2000, Australia",TAFE,-33.8697767,151.2040035
419,Victoria University - TAFE,City King,,225 King Street,MELBOURNE,VIC,3000,Australia,"225 King Street, MELBOURNE, VIC, 3000, Australia",TAFE,-37.8148754,144.9547483
420,Victoria University - TAFE,City Flinders,,300 Flinders Street,MELBOURNE,VIC,3000,Australia,"300 Flinders Street, MELBOURNE, VIC, 3000, Australia",TAFE,-37.8180839,144.96404569999999
421,Victoria University - TAFE,City Queen,,295 & 283 Queen Street,MELBOURNE,VIC,3000,Australia,"295 & 283 Queen Street, MELBOURNE, VIC, 3000, Australia",TAFE,-37.8116296,144.9594785
422,Victoria University - TAFE,Footscray Park,,Ballarat Road,FOOTSCRAY,VIC,3011,Australia,"Ballarat Road, FOOTSCRAY, VIC, 3011, Australia",TAFE,-37.7939394,144.90007509999998
423,Victoria University - TAFE,Footscray Nicholson,,Cnr Nicholson & Buckley Streets,FOOTSCRAY,VIC,3011,Australia,"Cnr Nicholson & Buckley Streets, FOOTSCRAY, VIC, 3011, Australia",TAFE,-37.80486079999999,144.89839709999998
424,Victoria University - TAFE,Sunshine,,460 Ballarat Road,SUNSHINE,VIC,3020,Australia,"460 Ballarat Road, SUNSHINE, VIC, 3020, Australia",TAFE,-37.7771946,144.83342290000002
425,Victoria University - TAFE,St Albans,,McKechnie Street,ST ALBANS,VIC,3021,Australia,"McKechnie Street, ST ALBANS, VIC, 3021, Australia",TAFE,-37.7522655,144.79791919999997
426,Victoria University - TAFE,Werribee,,Hoppers Lane,WERRIBEE,VIC,3030,Australia,"Hoppers Lane, WERRIBEE, VIC, 3030, Australia",TAFE,-37.889575799999996,144.70019580000002
427,Western Institute,Lithgow,,Hill Street,Lithgow,NSW,2790,Australia,"Hill Street, Lithgow, NSW, 2790, Australia",TAFE,-33.4847677,150.1631177
428,Western Institute,Cowra,,27-33 Carleton Street,Cowra,NSW,2794,Australia,"27-33 Carleton Street, Cowra, NSW, 2794, Australia",TAFE,-33.8327632,148.6984762
429,Western Institute,Bathurst,,Panorama Avenue,Bathurst,NSW,2795,Australia,"Panorama Avenue, Bathurst, NSW, 2795, Australia",TAFE,-33.435232,149.56418100000002
430,Western Institute,Orange,,109 March Street,Orange,NSW,2800,Australia,"109 March Street, Orange, NSW, 2800, Australia",TAFE,-33.278859000000004,149.098559
431,Western Institute,Grenfell,,East & Rose Streets,Grenfell,NSW,2810,Australia,"East & Rose Streets, Grenfell, NSW, 2810, Australia",TAFE,-33.89967,148.161544
432,Western Institute,Wellington,,43 Maugham Street,Wellington,NSW,2820,Australia,"43 Maugham Street, Wellington, NSW, 2820, Australia",TAFE,-32.556146000000005,148.945729
433,Western Institute,Warren,,Burton Street,Warren,NSW,2824,Australia,"Burton Street, Warren, NSW, 2824, Australia",TAFE,-31.699258,147.838285
434,Western Institute,Nyngan,,Cobar Street,Nyngan,NSW,2825,Australia,"Cobar Street, Nyngan, NSW, 2825, Australia",TAFE,-31.561396000000002,147.18983400000002
435,Western Institute,Gilgandra,,Wamboin Street,Gilgandra,NSW,2827,Australia,"Wamboin Street, Gilgandra, NSW, 2827, Australia",TAFE,-31.718365000000002,148.656027
436,Western Institute,Coonamble,,Dubbo Street,Coonamble,NSW,2829,Australia,"Dubbo Street, Coonamble, NSW, 2829, Australia",TAFE,-30.957416,148.393567
437,Western Institute,Dubbo,,Myall Street,Dubbo,NSW,2830,Australia,"Myall Street, Dubbo, NSW, 2830, Australia",TAFE,-32.2426575,148.6228629
438,Western Institute,Walgett,,Arthur Street,Walgett,NSW,2832,Australia,"Arthur Street, Walgett, NSW, 2832, Australia",TAFE,-30.025607,148.119472
439,Western Institute,Lightning Ridge,,Kaolin Street,Lightning Ridge,NSW,2834,Australia,"Kaolin Street, Lightning Ridge, NSW, 2834, Australia",TAFE,-29.42645,147.978276
440,Western Institute,Cobar,,45 Bathurst Street,Cobar,NSW,2835,Australia,"45 Bathurst Street, Cobar, NSW, 2835, Australia",TAFE,-31.491421799999998,145.8268574
441,Western Institute,Wilcannia,,Reid Street,Wilcannia,NSW,2836,Australia,"Reid Street, Wilcannia, NSW, 2836, Australia",TAFE,-31.557538,143.379896
442,Western Institute,Brewarrina,,Bourke Street,Brewarrina,NSW,2839,Australia,"Bourke Street, Brewarrina, NSW, 2839, Australia",TAFE,-29.96449,146.861991
443,Western Institute,Bourke,,Oxley Street,Bourke,NSW,2840,Australia,"Oxley Street, Bourke, NSW, 2840, Australia",TAFE,-30.090596,145.938796
444,Western Institute,Dunedoo,,Digilah Street,Dunedoo,NSW,2844,Australia,"Digilah Street, Dunedoo, NSW, 2844, Australia",TAFE,-32.0175946,149.39297659999997
445,Western Institute,Mudgee,,Cassilis Road,Mudgee,NSW,2850,Australia,"Cassilis Road, Mudgee, NSW, 2850, Australia",TAFE,-32.596821000000006,149.579427
446,Western Institute,Parkes,,25 Bushman Street,Parkes,NSW,2870,Australia,"25 Bushman Street, Parkes, NSW, 2870, Australia",TAFE,-33.1342652,148.17198290000002
447,Western Institute,Forbes,,Browne & Harold Streets,Forbes,NSW,2871,Australia,"Browne & Harold Streets, Forbes, NSW, 2871, Australia",TAFE,-33.3871711,148.0079885
448,Western Institute,Condobolin,,Cnr Turner & High Streets,Condobolin,NSW,2877,Australia,"Cnr Turner & High Streets, Condobolin, NSW, 2877, Australia",TAFE,-33.090457,147.137147
449,Western Institute,Menindee,,Bear Street,Menindee,NSW,2879,Australia,"Bear Street, Menindee, NSW, 2879, Australia",TAFE,-32.394652,142.411957
450,Western Institute,Broken Hill,,248 Argent Street Broken,Hill,NSW,2880,Australia,"248 Argent Street Broken, Hill, NSW, 2880, Australia",TAFE,-31.9586266,141.4644156
451,Western Sydney Institute,Blacktown College,,Main Street,Blacktown,NSW,2148,Australia,"Main Street, Blacktown, NSW, 2148, Australia",TAFE,-33.7728155,150.9114455
452,Western Sydney Institute,The Hills,,146-160 Old Northern Road,Baulkham Hills,NSW,2153,Australia,"146-160 Old Northern Road, Baulkham Hills, NSW, 2153, Australia",TAFE,-33.748996399999996,150.9924647
453,Western Sydney Institute,"The Hills College, Castle Hill (BISC)",,Cnr Showground and Green Roads,CASTLE,NSW,2154,Australia,"Cnr Showground and Green Roads, CASTLE, NSW, 2154, Australia",TAFE,-33.724247999999996,150.97583
454,Western Sydney Institute,Nepean College Kingswood,,2-10 O'Connell St,Kingswood,NSW,2747,Australia,"2-10 O'Connell St, Kingswood, NSW, 2747, Australia",TAFE,-33.7648924,150.7375938
455,Western Sydney Institute,Nepean,,12-44 OConnell St,Kingswood,NSW,2747,Australia,"12-44 OConnell St, Kingswood, NSW, 2747, Australia",TAFE,-33.764039000000004,150.734923
456,Western Sydney Institute,Nepean College Penrith,,117 Henry Street,PENRITH,NSW,2750,Australia,"117 Henry Street, PENRITH, NSW, 2750, Australia",TAFE,-33.752008000000004,150.6973066
457,Western Sydney Institute,Richmond,,Cnr Blacktown & Campus Roads,Richmond,NSW,2753,Australia,"Cnr Blacktown & Campus Roads, Richmond, NSW, 2753, Australia",TAFE,-33.7728155,150.9114455
458,Western Sydney Institute,Nirimba,,Eastern Road,Quakers Hill,NSW,2763,Australia,"Eastern Road, Quakers Hill, NSW, 2763, Australia",TAFE,-33.725064399999994,150.87505080000003
459,Western Sydney Institute,Mount Druitt,,Mount Street & North Parade ,Mount Druitt,NSW,2770,Australia,"Mount Street & North Parade , Mount Druitt, NSW, 2770, Australia",TAFE,-33.7698492,150.825826
460,Western Sydney Institute,Blue Mountains,,Parke Street,Katoomba,NSW,2780,Australia,"Parke Street, Katoomba, NSW, 2780, Australia",TAFE,-33.712903999999995,150.309747
461,Western Sydney Institute,Blue Mountains College Wentworth Falls,,Mitchell Street,WENTWORTH FALLS,NSW,2782,Australia,"Mitchell Street, WENTWORTH FALLS, NSW, 2782, Australia",TAFE,-33.708484000000006,150.36715800000002
462,William Angliss Institute,Sydney,,26-32 Waterloo Street,SURRY HILLS,NSW,2010,Australia,"26-32 Waterloo Street, SURRY HILLS, NSW, 2010, Australia",TAFE,-33.904486999999996,151.195537
463,William Angliss Institute,Melbourne,,555 La Trobe Street,MELBOURNE,VIC,3000,Australia,"555 La Trobe Street, MELBOURNE, VIC, 3000, Australia",TAFE,-37.812806200000004,144.9536219
464,William Angliss Institute,Lilydale Lakeside,,1 Jarlo Drive,LILYDALE,VIC,3140,Australia,"1 Jarlo Drive, LILYDALE, VIC, 3140, Australia",TAFE,-37.765772399999996,145.3459698
465,William Angliss Institute of TAFE,Sydney,,26-32 Waterloo Street,SURRY HILLS,NSW,2010,Australia,"26-32 Waterloo Street, SURRY HILLS, NSW, 2010, Australia",TAFE,-33.8862686,151.2104821
466,William Angliss Institute of TAFE,Melbourne CBD,,555 La Trobe St,MELBOURNE,VIC,3000,Australia,"555 La Trobe St, MELBOURNE, VIC, 3000, Australia",TAFE,-37.81338,144.952689
467,Wodonga Institute of TAFE,Wodonga Institute of TAFE - McKoy Street,,87 McKoy Street West Wodonga,WODONGA,VIC,3689,Australia,"87 McKoy Street West Wodonga, WODONGA, VIC, 3689, Australia",TAFE,-36.110139000000004,146.8555
468,Wodonga Institute of TAFE,Wodonga Institute of TAFE,,87 McKoy St,WEST WODONGA,VIC,3690,Australia,"87 McKoy St, WEST WODONGA, VIC, 3690, Australia",TAFE,-36.110139000000004,146.855551
